Unique ID,Street address,City,State,ZIP
459909,"398 STATE ROAD 128, WILSON, WI 54027",,,
459910,"121 FRONT ST W, DEER PARK, WI 54007",,,
459911,"285 COUNTY ROAD BB, WOODVILLE, WI 54028",,,
459912,"285 COUNTY ROAD BB, WOODVILLE, WI 54028",,,
459913,"2432 COUNTY ROAD G, EMERALD, WI 54013",,,
459914,"1952 COUNTY ROAD G, NEW RICHMOND, WI 54017-6914",,,
459915,"1895 COUNTY ROAD D, EMERALD, WI 54013-4605",,,
459916,"3099 160TH AVE, GLENWOOD CITY, WI 54013-4109",,,
459917,"1816 COUNTY RD E, HAMMOND, WI 54015-4900",,,
459918,"1816 COUNTY RD E, HAMMOND, WI 54015-4900",,,
459919,"1816 COUNTY RD E, HAMMOND, WI 54015-4900",,,
459920,"980 COUNTY ROAD A, HUDSON, WI 54016-7674",,,
459921,"980 COUNTY ROAD A, HUDSON, WI 54016-7674",,,
459922,"980 COUNTY ROAD A, HUDSON, WI 54016-7674",,,
459923,"980 COUNTY ROAD A, HUDSON, WI 54016-7674",,,
459924,"980 COUNTY ROAD A, HUDSON, WI 54016-7674",,,
459925,"980 COUNTY ROAD A, HUDSON, WI 54016-7674",,,
459926,"980 COUNTY ROAD A, HUDSON, WI 54016-7674",,,
459927,"980 COUNTY ROAD A, HUDSON, WI 54016-7674",,,
459928,"980 COUNTY ROAD A, HUDSON, WI 54016-7674",,,
459929,"980 COUNTY ROAD A, HUDSON, WI 54016-7674",,,
459930,"980 COUNTY ROAD A, HUDSON, WI 54016-7674",,,
459931,"980 COUNTY ROAD A, HUDSON, WI 54016-7674",,,
459932,"980 COUNTY ROAD A, HUDSON, WI 54016-7674",,,
459933,"980 COUNTY ROAD A, HUDSON, WI 54016-7674",,,
459934,"1271 COUNTY ROAD J, RIVER FALLS, WI 54022-5903",,,
459935,"1271 COUNTY ROAD J, RIVER FALLS, WI 54022-5903",,,
459936,"1271 COUNTY ROAD J, RIVER FALLS, WI 54022-5903",,,
459937,"1630 30TH AVE, HAMMOND, WI 54015-5214",,,
459938,"1428 100TH ST, NEW RICHMOND, WI 54017",,,
459939,"1428 100TH ST, NEW RICHMOND, WI 54017",,,
459940,"1428 100TH ST, NEW RICHMOND, WI 54017",,,
459941,"1428 100TH ST, NEW RICHMOND, WI 54017",,,
459942,"1428 100TH ST, NEW RICHMOND, WI 54017",,,
459943,"2008 COUNTY ROAD N, BALDWIN, WI 54002",,,
459944,"748 STATE HIGHWAY 35, SOMERSET, WI 54025-0248",,,
459945,"748 STATE HIGHWAY 35, SOMERSET, WI 54025-0248",,,
459946,"748 STATE HIGHWAY 35, SOMERSET, WI 54025-0248",,,
459947,"748 STATE HIGHWAY 35, SOMERSET, WI 54025-0248",,,
459948,"748 STATE HIGHWAY 35, SOMERSET, WI 54025-0248",,,
459949,"748 STATE HIGHWAY 35, SOMERSET, WI 54025-0248",,,
459950,"856 310TH ST, GLENWOOD CITY, WI 54013-3904",,,
459951,"1337 COUNTY ROAD V, HUDSON, WI 54016-6712",,,
459952,"1337 COUNTY ROAD V, HUDSON, WI 54016-6712",,,
459953,"1337 COUNTY ROAD V, HUDSON, WI 54016-6712",,,
459954,"1337 COUNTY ROAD V, HUDSON, WI 54016-6712",,,
459955,"1337 COUNTY ROAD V, HUDSON, WI 54016-6712",,,
459956,"1337 COUNTY ROAD V, HUDSON, WI 54016-6712",,,
459957,"2245 COUNTY ROAD T, DEER PARK, WI 54007-7307",,,
459958,"2118 COOK DR, SOMERSET, WI 54025-7551",,,
459959,"2118 COOK DR, SOMERSET, WI 54025-7551",,,
459960,"2118 COOK DR, SOMERSET, WI 54025-7551",,,
459961,"2118 COOK DR, SOMERSET, WI 54025-7551",,,
459962,"2118 COOK DR, SOMERSET, WI 54025-7551",,,
459963,"2118 COOK DR, SOMERSET, WI 54025-7551",,,
459964,"654 GLOVER RD, HUDSON, WI 54016-8201",,,
459965,"654 GLOVER RD, HUDSON, WI 54016-8201",,,
459966,"654 GLOVER RD, HUDSON, WI 54016-8201",,,
459967,"654 GLOVER RD, HUDSON, WI 54016-8201",,,
459968,"654 GLOVER RD, HUDSON, WI 54016-8201",,,
459969,"654 GLOVER RD, HUDSON, WI 54016-8201",,,
459970,"654 GLOVER RD, HUDSON, WI 54016-8201",,,
459971,"720 112TH ST, ROBERTS, WI 54023-8330",,,
459972,"720 112TH ST, ROBERTS, WI 54023-8330",,,
459973,"720 112TH ST, ROBERTS, WI 54023-8330",,,
459974,"400 CEDAR ST, BALDWIN, WI 54002",,,
459975,"400 CEDAR ST, BALDWIN, WI 54002",,,
459976,"400 CEDAR ST, BALDWIN, WI 54002",,,
459977,"400 CEDAR ST, BALDWIN, WI 54002",,,
459978,"400 CEDAR ST, BALDWIN, WI 54002",,,
459979,"400 CEDAR ST, BALDWIN, WI 54002",,,
459980,"121 FRONT ST W, DEER PARK, WI 54007",,,
459981,"455 DAVIS ST, HAMMOND, WI 54015",,,
459982,"455 DAVIS ST, HAMMOND, WI 54015",,,
459983,"455 DAVIS ST, HAMMOND, WI 54015",,,
459984,"455 DAVIS ST, HAMMOND, WI 54015",,,
459985,"400 7TH ST N, HUDSON, WI 54016-1166",,,
459986,"400 7TH ST N, HUDSON, WI 54016-1166",,,
459987,"400 7TH ST N, HUDSON, WI 54016-1166",,,
459988,"400 7TH ST N, HUDSON, WI 54016-1166",,,
459989,"400 7TH ST N, HUDSON, WI 54016-1166",,,
459990,"400 7TH ST N, HUDSON, WI 54016-1166",,,
459991,"107 E MAPLE ST, ROBERTS, WI 54023-9703",,,
459992,"107 E MAPLE ST, ROBERTS, WI 54023-9703",,,
459993,"107 E MAPLE ST, ROBERTS, WI 54023-9703",,,
459994,"107 E MAPLE ST, ROBERTS, WI 54023-9703",,,
459995,"208 HUD ST, SOMERSET, WI 54025",,,
459996,"208 HUD ST, SOMERSET, WI 54025",,,
459997,"208 HUD ST, SOMERSET, WI 54025",,,
459998,"208 HUD ST, SOMERSET, WI 54025",,,
459999,"E121 S 2ND ST, SPRING VALLEY, WI 54767",,,
460000,"207 BRIDGE AVE, STAR PRAIRIE, WI 54026-9215",,,
460001,"440 MAIN ST, WILSON, WI 54027",,,
460002,"102 S MAIN ST, WOODVILLE, WI 54028-9544",,,
460003,"102 S MAIN ST, WOODVILLE, WI 54028-9544",,,
460004,"639 S 2ND ST, MEDFORD, WI 54451-2058",,,
460005,"639 S 2ND ST, MEDFORD, WI 54451-2058",,,
460006,"639 S 2ND ST, MEDFORD, WI 54451-2058",,,
460007,"639 S 2ND ST, MEDFORD, WI 54451-2058",,,
460008,"639 S 2ND ST, MEDFORD, WI 54451-2058",,,
460009,"639 S 2ND ST, MEDFORD, WI 54451-2058",,,
460010,"639 S 2ND ST, MEDFORD, WI 54451-2058",,,
460011,"639 S 2ND ST, MEDFORD, WI 54451-2058",,,
460012,"W16018 STATE HIGHWAY 64, GILMAN, WI 54433",,,
460013,"N3030 LEKIE DR, MEDFORD, WI 54451",,,
460014,"N5917 SETTLEMENT DR, MEDFORD, WI 54451",,,
460015,"W14520 COUNTY ROAD M, GILMAN, WI 54433",,,
460016,"W4983 COUNTY ROAD A, STETSONVILLE, WI 54480-9527",,,
460017,"385 E MAIN ST, GILMAN, WI 54433",,,
460018,"W1196 MIRA AVE, MEDFORD, WI 54451",,,
460019,"W2790 TROUT AVE, RIB LAKE, WI 54470",,,
460020,"W11062 2ND ST, MEDFORD, WI 54451-8921",,,
460021,"W8792 CENTER AVE, MEDFORD, WI 54451-8528",,,
460022,"W8792 CENTER AVE, MEDFORD, WI 54451-8528",,,
460023,"W8581 COUNTY ROAD A, CURTISS, WI 54422",,,
460024,"W14751 RIVER ST, GILMAN, WI 54433",,,
460025,"W6022 COUNTY ROAD A, MEDFORD, WI 54451-9789",,,
460026,"W6022 COUNTY ROAD A, MEDFORD, WI 54451-9789",,,
460027,"N373 COUNTY ROAD T, WITHEE, WI 54498",,,
460028,"W14751 RIVER ST, GILMAN, WI 54433",,,
460029,"W6462 CENTER AVE, MEDFORD, WI 54451",,,
460030,"W6462 CENTER AVE, MEDFORD, WI 54451",,,
460031,"W6462 CENTER AVE, MEDFORD, WI 54451",,,
460032,"N5188 DIVISION DR, MEDFORD, WI 54451-8941",,,
460033,"W16670 COUNTY ROAD M, GILMAN, WI 54433",,,
460034,"W2382 STATE HIGHWAY 102, RIB LAKE, WI 54470",,,
460035,"W2382 STATE HIGHWAY 102, RIB LAKE, WI 54470",,,
460036,"N1219 WEST ST, LUBLIN, WI 54447-9625",,,
460037,"W16018 COUNTY ROAD F, THORP, WI 54771-9346",,,
460038,"N8855 2ND ST, WESTBORO, WI 54490-9441",,,
460039,"380 E MAIN, GILMAN, WI 54433",,,
460040,"N1217 RAILROAD ST, LUBLIN, WI 54447-9746",,,
460041,"655 PEARL ST, RIB LAKE, WI 54470-0205",,,
460042,"105 N GERSHWIN ST, STETSONVILLE, WI 54480-9562",,,
460043,"401 W MAIN ST, ARCADIA, WI 54612-1260",,,
460044,"401 W MAIN ST, ARCADIA, WI 54612-1260",,,
460045,"401 W MAIN ST, ARCADIA, WI 54612-1260",,,
460046,"122 URBERG ST, BLAIR, WI 54616-6300",,,
460047,"122 URBERG ST, BLAIR, WI 54616-6300",,,
460048,"122 URBERG ST, BLAIR, WI 54616-6300",,,
460049,"16787 S MAIN ST, GALESVILLE, WI 54630-7299",,,
460050,"16787 S MAIN ST, GALESVILLE, WI 54630-7299",,,
460051,"16787 S MAIN ST, GALESVILLE, WI 54630-7299",,,
460052,"23688 ADAMS ST, INDEPENDENCE, WI 54747-8094",,,
460053,"23688 ADAMS ST, INDEPENDENCE, WI 54747-8094",,,
460054,"23688 ADAMS ST, INDEPENDENCE, WI 54747-8094",,,
460055,"13712 8TH ST, OSSEO, WI 54758-8774",,,
460056,"13712 8TH ST, OSSEO, WI 54758-8774",,,
460057,"13712 8TH ST, OSSEO, WI 54758-8774",,,
460058,"36260 TOWER DR, WHITEHALL, WI 54773-8524",,,
460059,"36260 TOWER DR, WHITEHALL, WI 54773-8524",,,
460060,"36260 TOWER DR, WHITEHALL, WI 54773-8524",,,
460061,"52875 COUNTY ROAD Y, ELEVA, WI 54738",,,
460062,"52875 COUNTY ROAD Y, ELEVA, WI 54738",,,
460063,"W26051 STATE ROAD 95, ARCADIA, WI 54612-8200",,,
460064,"W26051 STATE ROAD 95, ARCADIA, WI 54612-8200",,,
460065,"W26051 STATE ROAD 95, ARCADIA, WI 54612-8200",,,
460066,"W26051 STATE ROAD 95, ARCADIA, WI 54612-8200",,,
460067,"W24152 STARWOOD LN, INDEPENDENCE, WI 54747",,,
460068,"W24152 STARWOOD LN, INDEPENDENCE, WI 54747",,,
460069,"N14399 COUNTY ROAD M, GALESVILLE, WI 54630",,,
460070,"N14399 COUNTY ROAD M, GALESVILLE, WI 54630",,,
460071,"N43299 CHURCH RD, STRUM, WI 54770",,,
460072,"W29861 BAMBENEK ST, DODGE, WI 54625-4302",,,
460073,"22734 WEST AVE, ETTRICK, WI 54627-7742",,,
460074,"22734 WEST AVE, ETTRICK, WI 54627-7742",,,
460075,"19992 W MILL RD, GALESVILLE, WI 54630",,,
460076,"19992 W MILL RD, GALESVILLE, WI 54630",,,
460077,"19992 W MILL RD, GALESVILLE, WI 54630",,,
460078,"N42111 COUNTY ROAD O, WHITEHALL, WI 54773",,,
460079,"W20774 STATE RD 121, WHITEHALL, WI 54773",,,
460080,"W20774 STATE RD 121, WHITEHALL, WI 54773",,,
460081,"N39631 FULLER COULEE RD, WHITEHALL, WI 54773-2000",,,
460082,"N39631 FULLER COULEE RD, WHITEHALL, WI 54773-2000",,,
460083,"101 W BROADWAY ST, BLAIR, WI 54616-9367",,,
460084,"101 W BROADWAY ST, BLAIR, WI 54616-9367",,,
460085,"101 W BROADWAY ST, BLAIR, WI 54616-9367",,,
460086,"13424 5TH ST, OSSEO, WI 54758-4600",,,
460087,"W24854 STATE ROAD 54 93, GALESVILLE, WI 54630-8243",,,
460088,"W24854 STATE ROAD 54 93, GALESVILLE, WI 54630-8243",,,
460089,"N50241 COUNTY ROAD D, STRUM, WI 54770-7837",,,
460090,"N50241 COUNTY ROAD D, STRUM, WI 54770-7837",,,
460091,"25952 E MONDOVI ST, ELEVA, WI 54738-9450",,,
460092,"22864 N MAIN ST, ETTRICK, WI 54627-9804",,,
460093,"40185 WINSAND DR DR4, PIGEON FALLS, WI 54760",,,
460094,"202 5TH AVE S, STRUM, WI 54770-7901",,,
460095,"202 5TH AVE S, STRUM, WI 54770-7901",,,
460096,"24455 3RD ST, TREMPEALEAU, WI 54661-9155",,,
460097,"24455 3RD ST, TREMPEALEAU, WI 54661-9155",,,
460098,"203 MILL ST, HILLSBORO, WI 54634",,,
460099,"203 MILL ST, HILLSBORO, WI 54634",,,
460100,"203 MILL ST, HILLSBORO, WI 54634",,,
460101,"203 MILL ST, HILLSBORO, WI 54634",,,
460102,"825 NELSON PKWY, VIROQUA, WI 54665",,,
460103,"825 NELSON PKWY, VIROQUA, WI 54665",,,
460104,"825 NELSON PKWY, VIROQUA, WI 54665",,,
460105,"825 NELSON PKWY, VIROQUA, WI 54665",,,
460106,"825 NELSON PKWY, VIROQUA, WI 54665",,,
460107,"825 NELSON PKWY, VIROQUA, WI 54665",,,
460108,"825 NELSON PKWY, VIROQUA, WI 54665",,,
460109,"825 NELSON PKWY, VIROQUA, WI 54665",,,
460110,"825 NELSON PKWY, VIROQUA, WI 54665",,,
460111,"206 S MAIN ST, WESTBY, WI 54667-1308",,,
460112,"206 S MAIN ST, WESTBY, WI 54667-1308",,,
460113,"206 S MAIN ST, WESTBY, WI 54667-1308",,,
460114,"206 S MAIN ST, WESTBY, WI 54667-1308",,,
460115,"206 S MAIN ST, WESTBY, WI 54667-1308",,,
460116,"N2094 PROKSCH COULEE RD, STODDARD, WI 54658",,,
460117,"N2094 PROKSCH COULEE RD, STODDARD, WI 54658",,,
460118,"N2094 PROKSCH COULEE RD, STODDARD, WI 54658",,,
460119,"505 SAUGSTAD RD, WESTBY, WI 54667",,,
460120,"505 SAUGSTAD RD, WESTBY, WI 54667",,,
460121,"S1299 COUNTY ROAD D, CASHTON, WI 54619-6155",,,
460122,"S1299 COUNTY ROAD D, CASHTON, WI 54619-6155",,,
460123,"S1770 TOWN HALL LN, WESTBY, WI 54667",,,
460124,"S1770 TOWN HALL LN, WESTBY, WI 54667",,,
460125,"E15784 STATE HIGHWAY 33, HILLSBORO, WI 54634",,,
460126,"S6635 US HIGHWAY 27, VIROQUA, WI 54665",,,
460127,"S6635 US HIGHWAY 27, VIROQUA, WI 54665",,,
460128,"126 MAIN ST, GENOA, WI 54632-8877",,,
460129,"126 MAIN ST, GENOA, WI 54632-8877",,,
460130,"S4105 COUNTY HIGHWAY C, HILLSBORO, WI 54634-3032",,,
460131,"S1594 COUNTY HWY K, CHASEBURG, WI 54621",,,
460132,"S1594 COUNTY HWY K, CHASEBURG, WI 54621",,,
460133,"E2905 NEWTON RD, GENOA, WI 54632",,,
460134,"E2905 NEWTON RD, GENOA, WI 54632",,,
460135,"E2905 NEWTON RD, GENOA, WI 54632",,,
460136,"S1504 TOWNSHOP RD, HILLSBORO, WI 54634",,,
460137,"S1504 TOWNSHOP RD, HILLSBORO, WI 54634",,,
460138,"S1504 TOWNSHOP RD, HILLSBORO, WI 54634",,,
460139,"S4020 COUNTY ROAD B, VIROQUA, WI 54665",,,
460140,"S4020 COUNTY ROAD B, VIROQUA, WI 54665",,,
460141,"S4020 COUNTY ROAD B, VIROQUA, WI 54665",,,
460142,"S4020 COUNTY ROAD B, VIROQUA, WI 54665",,,
460143,"120 W CHARLES ST, READSTOWN, WI 54652-7700",,,
460144,"E10491 GORE HOLLOW RD, VIOLA, WI 54664-8015",,,
460145,"S3803 CORPS RD, LA FARGE, WI 54639-8001",,,
460146,"S3803 CORPS RD, LA FARGE, WI 54639-8001",,,
460147,"E4621 STATE HIGHWAY 82, VIROQUA, WI 54665",,,
460148,"E15175 STATE ROAD 82, HILLSBORO, WI 54634",,,
460149,"E15175 STATE ROAD 82, HILLSBORO, WI 54634",,,
460150,"E15175 STATE ROAD 82, HILLSBORO, WI 54634",,,
460151,"E7560A COUNTY ROAD BB, VIROQUA, WI 54665",,,
460152,"E7560A COUNTY ROAD BB, VIROQUA, WI 54665",,,
460153,"E7560A COUNTY ROAD BB, VIROQUA, WI 54665",,,
460154,"E7560A COUNTY ROAD BB, VIROQUA, WI 54665",,,
460155,"E10614 STATE HIGHWAY 82, LA FARGE, WI 54639",,,
460156,"E10614 STATE HIGHWAY 82, LA FARGE, WI 54639",,,
460157,"E2177 STATE HIGHWAY 82, DE SOTO, WI 54624-6415",,,
460158,"S1701 SANDHILL RD, LA FARGE, WI 54639-8699",,,
460159,"400 DEPOT ST, CHASEBURG, WI 54621",,,
460160,"108 ROOSEVELT ST, COON VALLEY, WI 54623-8359",,,
460161,"115 HOUGHTON ST, DE SOTO, WI 54624-3201",,,
460162,"126 MAIN ST, GENOA, WI 54632-8877",,,
460163,"201 S CHERRY ST, LA FARGE, WI 54639",,,
460164,"205 STATE ST, ONTARIO, WI 54651-3002",,,
460165,"116 N 4TH ST, READSTOWN, WI 54652-7070",,,
460166,"180 N MAIN ST, STODDARD, WI 54658-9530",,,
460167,"106 W WISCONSIN ST, VIOLA, WI 54664-7073",,,
460168,"525 MAPLE ST, EAGLE RIVER, WI 54521",,,
460169,"525 MAPLE ST, EAGLE RIVER, WI 54521",,,
460170,"525 MAPLE ST, EAGLE RIVER, WI 54521",,,
460171,"525 MAPLE ST, EAGLE RIVER, WI 54521",,,
460172,"525 MAPLE ST, EAGLE RIVER, WI 54521",,,
460173,"10675 BIG ARBOR VITAE DR, ARBOR VITAE, WI 54568-9707",,,
460174,"10675 BIG ARBOR VITAE DR, ARBOR VITAE, WI 54568-9707",,,
460175,"10675 BIG ARBOR VITAE DR, ARBOR VITAE, WI 54568-9707",,,
460176,"10675 BIG ARBOR VITAE DR, ARBOR VITAE, WI 54568-9707",,,
460177,"10675 BIG ARBOR VITAE DR, ARBOR VITAE, WI 54568-9707",,,
460178,"10675 BIG ARBOR VITAE DR, ARBOR VITAE, WI 54568-9707",,,
460179,"10675 BIG ARBOR VITAE DR, ARBOR VITAE, WI 54568-9707",,,
460180,"5386 PARK ST, BOULDER JUNCTION, WI 54512-9605",,,
460181,"5386 PARK ST, BOULDER JUNCTION, WI 54512-9605",,,
460182,"5860 PERCH LAKE RD, EAGLE RIVER, WI 54521-9774",,,
460183,"5860 PERCH LAKE RD, EAGLE RIVER, WI 54521-9774",,,
460184,"4665 COUNTY ROAD K E, CONOVER, WI 54519-9401",,,
460185,"4665 COUNTY ROAD K E, CONOVER, WI 54519-9401",,,
460186,"109 OLD ABE RD, LAC DU FLAMBEAU, WI 54538-9386",,,
460187,"109 OLD ABE RD, LAC DU FLAMBEAU, WI 54538-9386",,,
460188,"109 OLD ABE RD, LAC DU FLAMBEAU, WI 54538-9386",,,
460189,"109 OLD ABE RD, LAC DU FLAMBEAU, WI 54538-9386",,,
460190,"109 OLD ABE RD, LAC DU FLAMBEAU, WI 54538-9386",,,
460191,"109 OLD ABE RD, LAC DU FLAMBEAU, WI 54538-9386",,,
460192,"109 OLD ABE RD, LAC DU FLAMBEAU, WI 54538-9386",,,
460193,"4331 COUNTY ROAD B, LAND O LAKES, WI 54540-9635",,,
460194,"1205 SUNDSTEIN RD, EAGLE RIVER, WI 54521",,,
460195,"1205 SUNDSTEIN RD, EAGLE RIVER, WI 54521",,,
460196,"1205 SUNDSTEIN RD, EAGLE RIVER, WI 54521",,,
460197,"1205 SUNDSTEIN RD, EAGLE RIVER, WI 54521",,,
460198,"1205 SUNDSTEIN RD, EAGLE RIVER, WI 54521",,,
460199,"5733 AIRPORT RD, MANITOWISH WATERS, WI 54545",,,
460200,"4499 TOWN HALL RD, PHELPS, WI 54554-9273",,,
460201,"4499 TOWN HALL RD, PHELPS, WI 54554-9273",,,
460202,"8755 LAKE ST, SAYNER, WI 54560-9701",,,
460203,"8755 LAKE ST, SAYNER, WI 54560-9701",,,
460204,"8306 SCHOOL LOOP RD, PRESQUE ISLE, WI 54557",,,
460205,"545 STATE HIGHWAY 155, ST. GERMAIN, WI 54558-9600",,,
460206,"545 STATE HIGHWAY 155, ST. GERMAIN, WI 54558-9600",,,
460207,"2301 TOWN HALL RD, EAGLE RIVER, WI 54521",,,
460208,"2301 TOWN HALL RD, EAGLE RIVER, WI 54521",,,
460209,"2301 TOWN HALL RD, EAGLE RIVER, WI 54521",,,
460210,"7228 COUNTY RD W, WINCHESTER, WI 54557",,,
460211,"589 MILWAUKEE AVE, BURLINGTON, WI 53105-1251",,,
460212,"589 MILWAUKEE AVE, BURLINGTON, WI 53105-1251",,,
460213,"123 S 2ND ST, DELAVAN, WI 53115-1769",,,
460214,"123 S 2ND ST, DELAVAN, WI 53115-1769",,,
460215,"123 S 2ND ST, DELAVAN, WI 53115-1769",,,
460216,"123 S 2ND ST, DELAVAN, WI 53115-1769",,,
460217,"123 S 2ND ST, DELAVAN, WI 53115-1769",,,
460218,"123 S 2ND ST, DELAVAN, WI 53115-1769",,,
460219,"123 S 2ND ST, DELAVAN, WI 53115-1769",,,
460220,"123 S 2ND ST, DELAVAN, WI 53115-1769",,,
460221,"123 S 2ND ST, DELAVAN, WI 53115-1769",,,
460222,"123 S 2ND ST, DELAVAN, WI 53115-1769",,,
460223,"123 S 2ND ST, DELAVAN, WI 53115-1769",,,
460224,"123 S 2ND ST, DELAVAN, WI 53115-1769",,,
460225,"123 S 2ND ST, DELAVAN, WI 53115-1769",,,
460226,"123 S 2ND ST, DELAVAN, WI 53115-1769",,,
460227,"123 S 2ND ST, DELAVAN, WI 53115-1769",,,
460228,"123 S 2ND ST, DELAVAN, WI 53115-1769",,,
460229,"401 FAIR AVE, ELKHORN, WI 53121-1938",,,
460230,"401 FAIR AVE, ELKHORN, WI 53121-1938",,,
460231,"401 FAIR AVE, ELKHORN, WI 53121-1938",,,
460232,"401 FAIR AVE, ELKHORN, WI 53121-1938",,,
460233,"401 FAIR AVE, ELKHORN, WI 53121-1938",,,
460234,"401 FAIR AVE, ELKHORN, WI 53121-1938",,,
460235,"401 FAIR AVE, ELKHORN, WI 53121-1938",,,
460236,"401 FAIR AVE, ELKHORN, WI 53121-1938",,,
460237,"626 GENEVA ST, LAKE GENEVA, WI 53147-1914",,,
460238,"626 GENEVA ST, LAKE GENEVA, WI 53147-1914",,,
460239,"626 GENEVA ST, LAKE GENEVA, WI 53147-1914",,,
460240,"626 GENEVA ST, LAKE GENEVA, WI 53147-1914",,,
460241,"626 GENEVA ST, LAKE GENEVA, WI 53147-1914",,,
460242,"626 GENEVA ST, LAKE GENEVA, WI 53147-1914",,,
460243,"626 GENEVA ST, LAKE GENEVA, WI 53147-1914",,,
460244,"626 GENEVA ST, LAKE GENEVA, WI 53147-1914",,,
460245,"626 GENEVA ST, LAKE GENEVA, WI 53147-1914",,,
460246,"626 GENEVA ST, LAKE GENEVA, WI 53147-1914",,,
460247,"626 GENEVA ST, LAKE GENEVA, WI 53147-1914",,,
460248,"626 GENEVA ST, LAKE GENEVA, WI 53147-1914",,,
460249,"626 GENEVA ST, LAKE GENEVA, WI 53147-1914",,,
460250,"626 GENEVA ST, LAKE GENEVA, WI 53147-1914",,,
460251,"146 W NORTH ST, WHITEWATER, WI 53190",,,
460252,"146 W NORTH ST, WHITEWATER, WI 53190",,,
460253,"146 W NORTH ST, WHITEWATER, WI 53190",,,
460254,"146 W NORTH ST, WHITEWATER, WI 53190",,,
460255,"146 W NORTH ST, WHITEWATER, WI 53190",,,
460256,"146 W NORTH ST, WHITEWATER, WI 53190",,,
460257,"907 W SCHWAGER DR, WHITEWATER, WI 53190",,,
460258,"907 W SCHWAGER DR, WHITEWATER, WI 53190",,,
460259,"907 W SCHWAGER DR, WHITEWATER, WI 53190",,,
460260,"907 W SCHWAGER DR, WHITEWATER, WI 53190",,,
460261,"N1100 TOWN HALL RD, GENOA CITY, WI 53128",,,
460262,"N1100 TOWN HALL RD, GENOA CITY, WI 53128",,,
460263,"N2826 FOUNDRY RD, DARIEN, WI 53114-1440",,,
460264,"N2826 FOUNDRY RD, DARIEN, WI 53114-1440",,,
460265,"N2826 FOUNDRY RD, DARIEN, WI 53114-1440",,,
460266,"2935 STATE ROAD 67, DELAVAN, WI 53115",,,
460267,"2935 STATE ROAD 67, DELAVAN, WI 53115",,,
460268,"2935 STATE ROAD 67, DELAVAN, WI 53115",,,
460269,"2935 STATE ROAD 67, DELAVAN, WI 53115",,,
460270,"2935 STATE ROAD 67, DELAVAN, WI 53115",,,
460271,"2935 STATE ROAD 67, DELAVAN, WI 53115",,,
460272,"2935 STATE ROAD 67, DELAVAN, WI 53115",,,
460273,"2935 STATE ROAD 67, DELAVAN, WI 53115",,,
460274,"2935 STATE ROAD 67, DELAVAN, WI 53115",,,
460275,"2935 STATE ROAD 67, DELAVAN, WI 53115",,,
460276,"2935 STATE ROAD 67, DELAVAN, WI 53115",,,
460277,"N9330 STEWART SCHOOL RD, EAST TROY, WI 53120-0872",,,
460278,"N9330 STEWART SCHOOL RD, EAST TROY, WI 53120-0872",,,
460279,"N9330 STEWART SCHOOL RD, EAST TROY, WI 53120-0872",,,
460280,"N9330 STEWART SCHOOL RD, EAST TROY, WI 53120-0872",,,
460281,"N9330 STEWART SCHOOL RD, EAST TROY, WI 53120-0872",,,
460282,"N9330 STEWART SCHOOL RD, EAST TROY, WI 53120-0872",,,
460283,"W3901 PALMER RD, LAKE GENEVA, WI 53147-2621",,,
460284,"W3901 PALMER RD, LAKE GENEVA, WI 53147-2621",,,
460285,"W3901 PALMER RD, LAKE GENEVA, WI 53147-2621",,,
460286,"W3901 PALMER RD, LAKE GENEVA, WI 53147-2621",,,
460287,"W3901 PALMER RD, LAKE GENEVA, WI 53147-2621",,,
460288,"W3901 PALMER RD, LAKE GENEVA, WI 53147-2621",,,
460289,"W3901 PALMER RD, LAKE GENEVA, WI 53147-2621",,,
460290,"W3901 PALMER RD, LAKE GENEVA, WI 53147-2621",,,
460291,"N7899 COUNTY ROAD H, WHITEWATER, WI 53190",,,
460292,"N7899 COUNTY ROAD H, WHITEWATER, WI 53190",,,
460293,"N7899 COUNTY ROAD H, WHITEWATER, WI 53190",,,
460294,"N6246 US HIGHWAY 12, ELKHORN, WI 53121",,,
460295,"N6246 US HIGHWAY 12, ELKHORN, WI 53121",,,
460296,"N6246 US HIGHWAY 12, ELKHORN, WI 53121",,,
460297,"W3728 FRANKLIN WALSH ST, ZENDA, WI 53195-0130",,,
460298,"W3728 FRANKLIN WALSH ST, ZENDA, WI 53195-0130",,,
460299,"W3728 FRANKLIN WALSH ST, ZENDA, WI 53195-0130",,,
460300,"W3728 FRANKLIN WALSH ST, ZENDA, WI 53195-0130",,,
460301,"W3728 FRANKLIN WALSH ST, ZENDA, WI 53195-0130",,,
460302,"N2482 CISCO RD, LAKE GENEVA, WI 53147-3736",,,
460303,"6339 HOSPITAL RD, BURLINGTON, WI 53105-9094",,,
460304,"6339 HOSPITAL RD, BURLINGTON, WI 53105-9094",,,
460305,"6339 HOSPITAL RD, BURLINGTON, WI 53105-9094",,,
460306,"6339 HOSPITAL RD, BURLINGTON, WI 53105-9094",,,
460307,"6339 HOSPITAL RD, BURLINGTON, WI 53105-9094",,,
460308,"6339 HOSPITAL RD, BURLINGTON, WI 53105-9094",,,
460309,"6339 HOSPITAL RD, BURLINGTON, WI 53105-9094",,,
460310,"W9046 COUNTY ROAD A, DELAVAN, WI 53115-2449",,,
460311,"W9046 COUNTY ROAD A, DELAVAN, WI 53115-2449",,,
460312,"W9046 COUNTY ROAD A, DELAVAN, WI 53115-2449",,,
460313,"N1097 BOLLINGER RD, SHARON, WI 53585-9704",,,
460314,"N6097 STATE ROAD 120, ELKHORN, WI 53121",,,
460315,"N6097 STATE ROAD 120, ELKHORN, WI 53121",,,
460316,"N6097 STATE ROAD 120, ELKHORN, WI 53121",,,
460317,"N6097 STATE ROAD 120, ELKHORN, WI 53121",,,
460318,"N6641 COUNTY ROAD H, ELKHORN, WI 53121-2909",,,
460319,"N6641 COUNTY ROAD H, ELKHORN, WI 53121-2909",,,
460320,"N6641 COUNTY ROAD H, ELKHORN, WI 53121-2909",,,
460321,"N6641 COUNTY ROAD H, ELKHORN, WI 53121-2909",,,
460322,"N6641 COUNTY ROAD H, ELKHORN, WI 53121-2909",,,
460323,"N8870 BRIGGS ST, EAST TROY, WI 53120-1721",,,
460324,"N8870 BRIGGS ST, EAST TROY, WI 53120-1721",,,
460325,"N8870 BRIGGS ST, EAST TROY, WI 53120-1721",,,
460326,"W6741 BRICK CHURCH RD, WALWORTH, WI 53184-5738",,,
460327,"W6741 BRICK CHURCH RD, WALWORTH, WI 53184-5738",,,
460328,"W6741 BRICK CHURCH RD, WALWORTH, WI 53184-5738",,,
460329,"W8590 WILLIS RAY RD, WHITEWATER, WI 53190-3802",,,
460330,"W8590 WILLIS RAY RD, WHITEWATER, WI 53190-3802",,,
460331,"W8590 WILLIS RAY RD, WHITEWATER, WI 53190-3802",,,
460332,"N1100 TOWN HALL RD, GENOA CITY, WI 53128",,,
460333,"N1100 TOWN HALL RD, GENOA CITY, WI 53128",,,
460334,"N1100 TOWN HALL RD, GENOA CITY, WI 53128",,,
460335,"N1100 TOWN HALL RD, GENOA CITY, WI 53128",,,
460336,"N1100 TOWN HALL RD, GENOA CITY, WI 53128",,,
460337,"24 WISCONSIN ST, DARIEN, WI 53114-1616",,,
460338,"24 WISCONSIN ST, DARIEN, WI 53114-1616",,,
460339,"2015 ENERGY DR, EAST TROY, WI 53120-1358",,,
460340,"2015 ENERGY DR, EAST TROY, WI 53120-1358",,,
460341,"2015 ENERGY DR, EAST TROY, WI 53120-1358",,,
460342,"2015 ENERGY DR, EAST TROY, WI 53120-1358",,,
460343,"2015 ENERGY DR, EAST TROY, WI 53120-1358",,,
460344,"175 VALLEY VIEW DR, FONTANA, WI 53125-1192",,,
460345,"175 VALLEY VIEW DR, FONTANA, WI 53125-1192",,,
460346,"175 VALLEY VIEW DR, FONTANA, WI 53125-1192",,,
460347,"755 FELLOWS RD, GENOA CITY, WI 53128-9803",,,
460348,"755 FELLOWS RD, GENOA CITY, WI 53128-9803",,,
460349,"755 FELLOWS RD, GENOA CITY, WI 53128-9803",,,
460350,"755 FELLOWS RD, GENOA CITY, WI 53128-9803",,,
460351,"440 RIVERCREST CT, MUKWONAGO, WI 53149-1759",,,
460352,"125 PLAIN ST, SHARON, WI 53585-9506",,,
460353,"125 PLAIN ST, SHARON, WI 53585-9506",,,
460354,"227 N MAIN ST, WALWORTH, WI 53184-9781",,,
460355,"227 N MAIN ST, WALWORTH, WI 53184-9781",,,
460356,"227 N MAIN ST, WALWORTH, WI 53184-9781",,,
460357,"240 ELKHORN RD, WILLIAMS BAY, WI 53191",,,
460358,"240 ELKHORN RD, WILLIAMS BAY, WI 53191",,,
460359,"240 ELKHORN RD, WILLIAMS BAY, WI 53191",,,
460360,"240 ELKHORN RD, WILLIAMS BAY, WI 53191",,,
460361,"501 1ST ST, SHELL LAKE, WI 54871",,,
460362,"501 1ST ST, SHELL LAKE, WI 54871",,,
460363,"515 N SUMMIT ST, SPOONER, WI 54801-1315",,,
460364,"515 N SUMMIT ST, SPOONER, WI 54801-1315",,,
460365,"515 N SUMMIT ST, SPOONER, WI 54801-1315",,,
460366,"515 N SUMMIT ST, SPOONER, WI 54801-1315",,,
460367,"515 N SUMMIT ST, SPOONER, WI 54801-1315",,,
460368,"515 N SUMMIT ST, SPOONER, WI 54801-1315",,,
460369,"N1608 S HEART LAKE RD, SHELL LAKE, WI 54871-7818",,,
460370,"N3410 SAWYER CREEK RD, SHELL LAKE, WI 54871",,,
460371,"N3410 SAWYER CREEK RD, SHELL LAKE, WI 54871",,,
460372,"N3410 SAWYER CREEK RD, SHELL LAKE, WI 54871",,,
460373,"W2103 TOWN HALL RD, SPRINGBROOK, WI 54875",,,
460374,"W7110 HARRINGTON RD, SHELL LAKE, WI 54871-8601",,,
460375,"W7110 HARRINGTON RD, SHELL LAKE, WI 54871-8601",,,
460376,"W7110 HARRINGTON RD, SHELL LAKE, WI 54871-8601",,,
460377,"N1549 COUNTY ROAD T, BIRCHWOOD, WI 54817-9116",,,
460378,"N1549 COUNTY ROAD T, BIRCHWOOD, WI 54817-9116",,,
460379,"N1549 COUNTY ROAD T, BIRCHWOOD, WI 54817-9116",,,
460380,"W5523 COUNTY HIGHWAY F, TREGO, WI 54888",,,
460381,"N7894 LOWER MCKENZIE RD, SPOONER, WI 54801",,,
460382,"W8499 HIGHWAY 77, TREGO, WI 54888-9158",,,
460383,"W8499 HIGHWAY 77, TREGO, WI 54888-9158",,,
460384,"N3911 COUNTY HIGHWAY A, SPOONER, WI 54801",,,
460385,"N3911 COUNTY HIGHWAY A, SPOONER, WI 54801",,,
460386,"W8896 CARLTON RD, SPOONER, WI 54801-7627",,,
460387,"W8896 CARLTON RD, SPOONER, WI 54801-7627",,,
460388,"N13010 FROG CREEK RD, MINONG, WI 54859",,,
460389,"W3494 HADDICK RD, SPRINGBROOK, WI 54875",,,
460390,"N1584 COUNTY HIGHWAY MD, SARONA, WI 54870-9265",,,
460391,"N3481 COUNTY HIGHWAY M, SARONA, WI 54870",,,
460392,"N3481 COUNTY HIGHWAY M, SARONA, WI 54870",,,
460393,"N3481 COUNTY HIGHWAY M, SARONA, WI 54870",,,
460394,"W7095 NANCY LAKE RD, MINONG, WI 54859-9275",,,
460395,"W7095 NANCY LAKE RD, MINONG, WI 54859-9275",,,
460396,"W5308 RIPLEY RD, SARONA, WI 54870",,,
460397,"W5308 RIPLEY RD, SARONA, WI 54870",,,
460398,"N6124 BLOOMING VALE RD, SPOONER, WI 54801-8498",,,
460399,"N6124 BLOOMING VALE RD, SPOONER, WI 54801-8498",,,
460400,"N6124 BLOOMING VALE RD, SPOONER, WI 54801-8498",,,
460401,"N8583 COUNTY HIGHWAY M, SPRINGBROOK, WI 54875-9404",,,
460402,"N10361 COUNTY HIGHWAY M, SPRINGBROOK, WI 54875-9539",,,
460403,"N6071 STONE LAKE RD, STONE LAKE, WI 54876-8838",,,
460404,"W5690 TREGO RIVER ST, TREGO, WI 54888",,,
460405,"W5690 TREGO RIVER ST, TREGO, WI 54888",,,
460406,"101 N MAIN ST, BIRCHWOOD, WI 54817-0191",,,
460407,"123 W 5TH AVE, MINONG, WI 54859-4400",,,
460408,"125 N RURAL ST, HARTFORD, WI 53027-1407",,,
460409,"125 N RURAL ST, HARTFORD, WI 53027-1407",,,
460410,"125 N RURAL ST, HARTFORD, WI 53027-1407",,,
460411,"125 N RURAL ST, HARTFORD, WI 53027-1407",,,
460412,"125 N RURAL ST, HARTFORD, WI 53027-1407",,,
460413,"125 N RURAL ST, HARTFORD, WI 53027-1407",,,
460414,"125 N RURAL ST, HARTFORD, WI 53027-1407",,,
460415,"125 N RURAL ST, HARTFORD, WI 53027-1407",,,
460416,"109 N MAIN ST, HARTFORD, WI 53027-1576",,,
460417,"109 N MAIN ST, HARTFORD, WI 53027-1576",,,
460418,"109 N MAIN ST, HARTFORD, WI 53027-1576",,,
460419,"109 N MAIN ST, HARTFORD, WI 53027-1576",,,
460420,"109 N MAIN ST, HARTFORD, WI 53027-1576",,,
460421,"109 N MAIN ST, HARTFORD, WI 53027-1576",,,
460422,"109 N MAIN ST, HARTFORD, WI 53027-1576",,,
460423,"109 N MAIN ST, HARTFORD, WI 53027-1576",,,
460424,"109 N MAIN ST, HARTFORD, WI 53027-1576",,,
460425,"109 N MAIN ST, HARTFORD, WI 53027-1576",,,
460426,"109 N MAIN ST, HARTFORD, WI 53027-1576",,,
460427,"109 N MAIN ST, HARTFORD, WI 53027-1576",,,
460428,"109 N MAIN ST, HARTFORD, WI 53027-1576",,,
460429,"109 N MAIN ST, HARTFORD, WI 53027-1576",,,
460430,"109 N MAIN ST, HARTFORD, WI 53027-1576",,,
460431,"109 N MAIN ST, HARTFORD, WI 53027-1576",,,
460432,"100 PARK AVE, HARTFORD, WI 53027-1585",,,
460433,"100 PARK AVE, HARTFORD, WI 53027-1585",,,
460434,"100 PARK AVE, HARTFORD, WI 53027-1585",,,
460435,"100 PARK AVE, HARTFORD, WI 53027-1585",,,
460436,"100 PARK AVE, HARTFORD, WI 53027-1585",,,
460437,"100 PARK AVE, HARTFORD, WI 53027-1585",,,
460438,"100 PARK AVE, HARTFORD, WI 53027-1585",,,
460439,"100 PARK AVE, HARTFORD, WI 53027-1585",,,
460440,"100 PARK AVE, HARTFORD, WI 53027-1585",,,
460441,"100 PARK AVE, HARTFORD, WI 53027-1585",,,
460442,"8251 N CELINA ST, MILWAUKEE, WI 53224-2713",,,
460443,"432 E WASHINGTON ST, WEST BEND, WI 53095-2530",,,
460444,"432 E WASHINGTON ST, WEST BEND, WI 53095-2530",,,
460445,"432 E WASHINGTON ST, WEST BEND, WI 53095-2530",,,
460446,"630 POPLAR ST, WEST BEND, WI 53095-3248",,,
460447,"630 POPLAR ST, WEST BEND, WI 53095-3248",,,
460448,"630 POPLAR ST, WEST BEND, WI 53095-3248",,,
460449,"2300 S MAIN ST, WEST BEND, WI 53095-5762",,,
460450,"2300 S MAIN ST, WEST BEND, WI 53095-5762",,,
460451,"1115 S MAIN ST, WEST BEND, WI 53095-4605",,,
460452,"1115 S MAIN ST, WEST BEND, WI 53095-4605",,,
460453,"1115 S MAIN ST, WEST BEND, WI 53095-4605",,,
460454,"1115 S MAIN ST, WEST BEND, WI 53095-4605",,,
460455,"333 E WASHINGTON ST, WEST BEND, WI 53095-2585",,,
460456,"333 E WASHINGTON ST, WEST BEND, WI 53095-2585",,,
460457,"333 E WASHINGTON ST, WEST BEND, WI 53095-2585",,,
460458,"333 E WASHINGTON ST, WEST BEND, WI 53095-2585",,,
460459,"333 E WASHINGTON ST, WEST BEND, WI 53095-2585",,,
460460,"432 E WASHINGTON ST, WEST BEND, WI 53095-2530",,,
460461,"432 E WASHINGTON ST, WEST BEND, WI 53095-2530",,,
460462,"432 E WASHINGTON ST, WEST BEND, WI 53095-2530",,,
460463,"432 E WASHINGTON ST, WEST BEND, WI 53095-2530",,,
460464,"432 E WASHINGTON ST, WEST BEND, WI 53095-2530",,,
460465,"2151 N MAIN ST, WEST BEND, WI 53090-1031",,,
460466,"2151 N MAIN ST, WEST BEND, WI 53090-1031",,,
460467,"2151 N MAIN ST, WEST BEND, WI 53090-1031",,,
460468,"1115 S MAIN ST, WEST BEND, WI 53095-4605",,,
460469,"1115 S MAIN ST, WEST BEND, WI 53095-4605",,,
460470,"1115 S MAIN ST, WEST BEND, WI 53095-4605",,,
460471,"1115 S MAIN ST, WEST BEND, WI 53095-4605",,,
460472,"432 E WASHINGTON ST, WEST BEND, WI 53095-2530",,,
460473,"432 E WASHINGTON ST, WEST BEND, WI 53095-2530",,,
460474,"333 E WASHINGTON ST, WEST BEND, WI 53095-2585",,,
460475,"1115 S MAIN ST, WEST BEND, WI 53095-4605",,,
460476,"1115 S MAIN ST, WEST BEND, WI 53095-4605",,,
460477,"1115 S MAIN ST, WEST BEND, WI 53095-4605",,,
460478,"1115 S MAIN ST, WEST BEND, WI 53095-4605",,,
460479,"127 FIRST ST, ALLENTON, WI 53002-1003",,,
460480,"127 FIRST ST, ALLENTON, WI 53002-1003",,,
460481,"127 FIRST ST, ALLENTON, WI 53002-1003",,,
460482,"127 FIRST ST, ALLENTON, WI 53002-1003",,,
460483,"127 FIRST ST, ALLENTON, WI 53002-1003",,,
460484,"127 FIRST ST, ALLENTON, WI 53002-1003",,,
460485,"3482 TOWN HALL RD, KEWASKUM, WI 53040-9469",,,
460486,"3482 TOWN HALL RD, KEWASKUM, WI 53040-9469",,,
460487,"3482 TOWN HALL RD, KEWASKUM, WI 53040-9469",,,
460488,"3482 TOWN HALL RD, KEWASKUM, WI 53040-9469",,,
460489,"1846 STATE ROAD 83, HARTFORD, WI 53027-9774",,,
460490,"1846 STATE ROAD 83, HARTFORD, WI 53027-9774",,,
460491,"1846 STATE ROAD 83, HARTFORD, WI 53027-9774",,,
460492,"1846 STATE ROAD 83, HARTFORD, WI 53027-9774",,,
460493,"9422 STATE ROAD 144, KEWASKUM, WI 53040-9732",,,
460494,"9422 STATE ROAD 144, KEWASKUM, WI 53040-9732",,,
460495,"9422 STATE ROAD 144, KEWASKUM, WI 53040-9732",,,
460496,"9422 STATE ROAD 144, KEWASKUM, WI 53040-9732",,,
460497,"9422 STATE ROAD 144, KEWASKUM, WI 53040-9732",,,
460498,"N132W18473 ROCKFIELD RD, RICHFIELD, WI 53076",,,
460499,"3360 COUNTY ROAD K, HARTFORD, WI 53027-9370",,,
460500,"3360 COUNTY ROAD K, HARTFORD, WI 53027-9370",,,
460501,"3360 COUNTY ROAD K, HARTFORD, WI 53027-9370",,,
460502,"3360 COUNTY ROAD K, HARTFORD, WI 53027-9370",,,
460503,"3360 COUNTY ROAD K, HARTFORD, WI 53027-9370",,,
460504,"3146 DIVISION RD, JACKSON, WI 53037-9711",,,
460505,"3146 DIVISION RD, JACKSON, WI 53037-9711",,,
460506,"3146 DIVISION RD, JACKSON, WI 53037-9711",,,
460507,"3146 DIVISION RD, JACKSON, WI 53037-9711",,,
460508,"3146 DIVISION RD, JACKSON, WI 53037-9711",,,
460509,"3146 DIVISION RD, JACKSON, WI 53037-9711",,,
460510,"9019 KETTLE MORAINE DR, KEWASKUM, WI 53040-9260",,,
460511,"9019 KETTLE MORAINE DR, KEWASKUM, WI 53040-9260",,,
460512,"3680 STATE ROAD 60, SLINGER, WI 53086-9309",,,
460513,"3680 STATE ROAD 60, SLINGER, WI 53086-9309",,,
460514,"3680 STATE ROAD 60, SLINGER, WI 53086-9309",,,
460515,"3680 STATE ROAD 60, SLINGER, WI 53086-9309",,,
460516,"3680 STATE ROAD 60, SLINGER, WI 53086-9309",,,
460517,"3680 STATE ROAD 60, SLINGER, WI 53086-9309",,,
460518,"1071 HIGHWAY 33, WEST BEND, WI 53095-8958",,,
460519,"1071 HIGHWAY 33, WEST BEND, WI 53095-8958",,,
460520,"1071 HIGHWAY 33, WEST BEND, WI 53095-8958",,,
460521,"1071 HIGHWAY 33, WEST BEND, WI 53095-8958",,,
460522,"1071 HIGHWAY 33, WEST BEND, WI 53095-8958",,,
460523,"1071 HIGHWAY 33, WEST BEND, WI 53095-8958",,,
460524,"1071 HIGHWAY 33, WEST BEND, WI 53095-8958",,,
460525,"1071 HIGHWAY 33, WEST BEND, WI 53095-8958",,,
460526,"6030 MOHAWK RD, CAMPBELLSPORT, WI 53010",,,
460527,"6030 MOHAWK RD, CAMPBELLSPORT, WI 53010",,,
460528,"6030 MOHAWK RD, CAMPBELLSPORT, WI 53010",,,
460529,"6355 COUNTY ROAD Z, WEST BEND, WI 53095-9201",,,
460530,"6355 COUNTY ROAD Z, WEST BEND, WI 53095-9201",,,
460531,"6355 COUNTY ROAD Z, WEST BEND, WI 53095-9201",,,
460532,"6355 COUNTY ROAD Z, WEST BEND, WI 53095-9201",,,
460533,"6355 COUNTY ROAD Z, WEST BEND, WI 53095-9201",,,
460534,"6355 COUNTY ROAD Z, WEST BEND, WI 53095-9201",,,
460535,"6355 COUNTY ROAD Z, WEST BEND, WI 53095-9201",,,
460536,"6355 COUNTY ROAD Z, WEST BEND, WI 53095-9201",,,
460537,"N108W14290 BEL AIRE LN, GERMANTOWN, WI 53022-4304",,,
460538,"N108W14290 BEL AIRE LN, GERMANTOWN, WI 53022-4304",,,
460539,"N108W14290 BEL AIRE LN, GERMANTOWN, WI 53022-4304",,,
460540,"N108W14290 BEL AIRE LN, GERMANTOWN, WI 53022-4304",,,
460541,"N120W15932 FREISTADT RD, GERMANTOWN, WI 53022-1948",,,
460542,"N120W15932 FREISTADT RD, GERMANTOWN, WI 53022-1948",,,
460543,"N120W15932 FREISTADT RD, GERMANTOWN, WI 53022-1948",,,
460544,"N120W15932 FREISTADT RD, GERMANTOWN, WI 53022-1948",,,
460545,"W164N11325 SQUIRE DR, GERMANTOWN, WI 53022-6027",,,
460546,"W164N11325 SQUIRE DR, GERMANTOWN, WI 53022-6027",,,
460547,"W164N11325 SQUIRE DR, GERMANTOWN, WI 53022-6027",,,
460548,"W164N11325 SQUIRE DR, GERMANTOWN, WI 53022-6027",,,
460549,"W164N11325 SQUIRE DR, GERMANTOWN, WI 53022-6027",,,
460550,"W156N10041 PILGRIM RD, GERMANTOWN, WI 53022-4801",,,
460551,"W156N10041 PILGRIM RD, GERMANTOWN, WI 53022-4801",,,
460552,"W156N10041 PILGRIM RD, GERMANTOWN, WI 53022-4801",,,
460553,"W156N10041 PILGRIM RD, GERMANTOWN, WI 53022-4801",,,
460554,"N165W20330 HICKORY LN, JACKSON, WI 53037",,,
460555,"N165W20330 HICKORY LN, JACKSON, WI 53037",,,
460556,"N165W20330 HICKORY LN, JACKSON, WI 53037",,,
460557,"N165W20330 HICKORY LN, JACKSON, WI 53037",,,
460558,"N165W20330 HICKORY LN, JACKSON, WI 53037",,,
460559,"N165W20330 HICKORY LN, JACKSON, WI 53037",,,
460560,"N165W20330 HICKORY LN, JACKSON, WI 53037",,,
460561,"N165W20330 HICKORY LN, JACKSON, WI 53037",,,
460562,"N165W20330 HICKORY LN, JACKSON, WI 53037",,,
460563,"N165W20330 HICKORY LN, JACKSON, WI 53037",,,
460564,"N165W20330 HICKORY LN, JACKSON, WI 53037",,,
460565,"N165W20330 HICKORY LN, JACKSON, WI 53037",,,
460566,"N165W20330 HICKORY LN, JACKSON, WI 53037",,,
460567,"204 1ST ST, KEWASKUM, WI 53040-8929",,,
460568,"204 1ST ST, KEWASKUM, WI 53040-8929",,,
460569,"204 1ST ST, KEWASKUM, WI 53040-8929",,,
460570,"204 1ST ST, KEWASKUM, WI 53040-8929",,,
460571,"204 1ST ST, KEWASKUM, WI 53040-8929",,,
460572,"204 1ST ST, KEWASKUM, WI 53040-8929",,,
460573,"620 WEST MAIN ST, NEWBURG, WI 53060",,,
460574,"620 WEST MAIN ST, NEWBURG, WI 53060",,,
460575,"4014 STATE ROAD 167, RICHFIELD, WI 53076-9607",,,
460576,"4014 STATE ROAD 167, RICHFIELD, WI 53076-9607",,,
460577,"4014 STATE ROAD 167, RICHFIELD, WI 53076-9607",,,
460578,"4014 STATE ROAD 167, RICHFIELD, WI 53076-9607",,,
460579,"4014 STATE ROAD 167, RICHFIELD, WI 53076-9607",,,
460580,"4014 STATE ROAD 167, RICHFIELD, WI 53076-9607",,,
460581,"4014 STATE ROAD 167, RICHFIELD, WI 53076-9607",,,
460582,"4014 STATE ROAD 167, RICHFIELD, WI 53076-9607",,,
460583,"4014 STATE ROAD 167, RICHFIELD, WI 53076-9607",,,
460584,"4014 STATE ROAD 167, RICHFIELD, WI 53076-9607",,,
460585,"218 SLINGER RD, SLINGER, WI 53086",,,
460586,"218 SLINGER RD, SLINGER, WI 53086",,,
460587,"218 SLINGER RD, SLINGER, WI 53086",,,
460588,"218 SLINGER RD, SLINGER, WI 53086",,,
460589,"218 SLINGER RD, SLINGER, WI 53086",,,
460590,"218 SLINGER RD, SLINGER, WI 53086",,,
460591,"218 SLINGER RD, SLINGER, WI 53086",,,
460592,"218 SLINGER RD, SLINGER, WI 53086",,,
460593,"218 SLINGER RD, SLINGER, WI 53086",,,
460594,"3305 LILLY RD, BROOKFIELD, WI 53005",,,
460595,"3305 LILLY RD, BROOKFIELD, WI 53005",,,
460596,"3305 LILLY RD, BROOKFIELD, WI 53005",,,
460597,"16185 BURLEIGH PL, BROOKFIELD, WI 53005-2851",,,
460598,"16185 BURLEIGH PL, BROOKFIELD, WI 53005-2851",,,
460599,"16185 BURLEIGH PL, BROOKFIELD, WI 53005-2851",,,
460600,"16185 BURLEIGH PL, BROOKFIELD, WI 53005-2851",,,
460601,"2400 PILGRIM SQUARE DR, BROOKFIELD, WI 53005-4420",,,
460602,"2400 PILGRIM SQUARE DR, BROOKFIELD, WI 53005-4420",,,
460603,"2400 PILGRIM SQUARE DR, BROOKFIELD, WI 53005-4420",,,
460604,"2250 N LYNETTE LN, BROOKFIELD, WI 53045-4770",,,
460605,"2250 N LYNETTE LN, BROOKFIELD, WI 53045-4770",,,
460606,"2250 N LYNETTE LN, BROOKFIELD, WI 53045-4770",,,
460607,"16900 GEBHARDT RD, BROOKFIELD, WI 53005",,,
460608,"16900 GEBHARDT RD, BROOKFIELD, WI 53005",,,
460609,"16900 GEBHARDT RD, BROOKFIELD, WI 53005",,,
460610,"16900 GEBHARDT RD, BROOKFIELD, WI 53005",,,
460611,"305 N CALHOUN RD, BROOKFIELD, WI 53005-3401",,,
460612,"305 N CALHOUN RD, BROOKFIELD, WI 53005-3401",,,
460613,"305 N CALHOUN RD, BROOKFIELD, WI 53005-3401",,,
460614,"305 N CALHOUN RD, BROOKFIELD, WI 53005-3401",,,
460615,"18000 W GREENFIELD AVE, BROOKFIELD, WI 53045-6615",,,
460616,"18000 W GREENFIELD AVE, BROOKFIELD, WI 53045-6615",,,
460617,"18000 W GREENFIELD AVE, BROOKFIELD, WI 53045-6615",,,
460618,"2250 N LYNETTE LN, BROOKFIELD, WI 53045-4770",,,
460619,"1600 GENESEE ST, DELAFIELD, WI 53018-1202",,,
460620,"1600 GENESEE ST, DELAFIELD, WI 53018-1202",,,
460621,"1600 GENESEE ST, DELAFIELD, WI 53018-1202",,,
460622,"1600 GENESEE ST, DELAFIELD, WI 53018-1202",,,
460623,"1600 GENESEE ST, DELAFIELD, WI 53018-1202",,,
460624,"1600 GENESEE ST, DELAFIELD, WI 53018-1202",,,
460625,"1600 GENESEE ST, DELAFIELD, WI 53018-1202",,,
460626,"1600 GENESEE ST, DELAFIELD, WI 53018-1202",,,
460627,"1600 GENESEE ST, DELAFIELD, WI 53018-1202",,,
460628,"1600 GENESEE ST, DELAFIELD, WI 53018-1202",,,
460629,"1600 GENESEE ST, DELAFIELD, WI 53018-1202",,,
460630,"1600 GENESEE ST, DELAFIELD, WI 53018-1202",,,
460631,"1600 GENESEE ST, DELAFIELD, WI 53018-1202",,,
460632,"1600 GENESEE ST, DELAFIELD, WI 53018-1202",,,
460633,"12021 W FLORIST AVE, MILWAUKEE, WI 53225-2119",,,
460634,"S63W13694 JANESVILLE RD, MUSKEGO, WI 53150",,,
460635,"S63W13694 JANESVILLE RD, MUSKEGO, WI 53150",,,
460636,"S63W13694 JANESVILLE RD, MUSKEGO, WI 53150",,,
460637,"S73W16663 JANESVILLE RD, MUSKEGO, WI 53150",,,
460638,"S73W16663 JANESVILLE RD, MUSKEGO, WI 53150",,,
460639,"W182S8200 RACINE AVE, MUSKEGO, WI 53150-8750",,,
460640,"W182S8200 RACINE AVE, MUSKEGO, WI 53150-8750",,,
460641,"W182S8200 RACINE AVE, MUSKEGO, WI 53150-8750",,,
460642,"W182S8200 RACINE AVE, MUSKEGO, WI 53150-8750",,,
460643,"W182S8200 RACINE AVE, MUSKEGO, WI 53150-8750",,,
460644,"S67W19491 TANS DR, MUSKEGO, WI 53150-8521",,,
460645,"S67W19491 TANS DR, MUSKEGO, WI 53150-8521",,,
460646,"W182S8200 RACINE AVE, MUSKEGO, WI 53150-8750",,,
460647,"W182S8200 RACINE AVE, MUSKEGO, WI 53150-8750",,,
460648,"S73W16663 JANESVILLE RD, MUSKEGO, WI 53150",,,
460649,"S73W16663 JANESVILLE RD, MUSKEGO, WI 53150",,,
460650,"2600 S SUNNYSLOPE RD, NEW BERLIN, WI 53151-3074",,,
460651,"2600 S SUNNYSLOPE RD, NEW BERLIN, WI 53151-3074",,,
460652,"2600 S SUNNYSLOPE RD, NEW BERLIN, WI 53151-3074",,,
460653,"14750 W CLEVELAND AVE, NEW BERLIN, WI 53151-3823",,,
460654,"14750 W CLEVELAND AVE, NEW BERLIN, WI 53151-3823",,,
460655,"14750 W CLEVELAND AVE, NEW BERLIN, WI 53151-3823",,,
460656,"14750 W CLEVELAND AVE, NEW BERLIN, WI 53151-3823",,,
460657,"17770 W CLEVELAND AVE, NEW BERLIN, WI 53146",,,
460658,"17770 W CLEVELAND AVE, NEW BERLIN, WI 53146",,,
460659,"17770 W CLEVELAND AVE, NEW BERLIN, WI 53146",,,
460660,"17651 W SMALL RD, NEW BERLIN, WI 53146-5530",,,
460661,"17651 W SMALL RD, NEW BERLIN, WI 53146-5530",,,
460662,"17651 W SMALL RD, NEW BERLIN, WI 53146-5530",,,
460663,"17651 W SMALL RD, NEW BERLIN, WI 53146-5530",,,
460664,"17651 W SMALL RD, NEW BERLIN, WI 53146-5530",,,
460665,"17651 W SMALL RD, NEW BERLIN, WI 53146-5530",,,
460666,"15105 W LIBRARY LN, NEW BERLIN, WI 53151-5280",,,
460667,"15105 W LIBRARY LN, NEW BERLIN, WI 53151-5280",,,
460668,"15105 W LIBRARY LN, NEW BERLIN, WI 53151-5280",,,
460669,"15105 W LIBRARY LN, NEW BERLIN, WI 53151-5280",,,
460670,"15105 W LIBRARY LN, NEW BERLIN, WI 53151-5280",,,
460671,"12700 W HOWARD AVE, NEW BERLIN, WI 53151",,,
460672,"12700 W HOWARD AVE, NEW BERLIN, WI 53151",,,
460673,"12700 W HOWARD AVE, NEW BERLIN, WI 53151",,,
460674,"3805 S CASPER DR, NEW BERLIN, WI 53151-5009",,,
460675,"3805 S CASPER DR, NEW BERLIN, WI 53151-5009",,,
460676,"3805 S CASPER DR, NEW BERLIN, WI 53151-5009",,,
460677,"630 E WISCONSIN AVE, OCONOMOWOC, WI 53066",,,
460678,"630 E WISCONSIN AVE, OCONOMOWOC, WI 53066",,,
460679,"630 E WISCONSIN AVE, OCONOMOWOC, WI 53066",,,
460680,"630 E WISCONSIN AVE, OCONOMOWOC, WI 53066",,,
460681,"630 E WISCONSIN AVE, OCONOMOWOC, WI 53066",,,
460682,"630 E WISCONSIN AVE, OCONOMOWOC, WI 53066",,,
460683,"220 W WISCONSIN AVE, OCONOMOWOC, WI 53066",,,
460684,"220 W WISCONSIN AVE, OCONOMOWOC, WI 53066",,,
460685,"220 W WISCONSIN AVE, OCONOMOWOC, WI 53066",,,
460686,"1400 OCONOMOWOC PKWY, OCONOMOWOC, WI 53066",,,
460687,"1400 OCONOMOWOC PKWY, OCONOMOWOC, WI 53066",,,
460688,"1400 OCONOMOWOC PKWY, OCONOMOWOC, WI 53066",,,
460689,"1400 OCONOMOWOC PKWY, OCONOMOWOC, WI 53066",,,
460690,"200 W SOUTH ST, OCONOMOWOC, WI 53066-5213",,,
460691,"200 W SOUTH ST, OCONOMOWOC, WI 53066-5213",,,
460692,"200 W SOUTH ST, OCONOMOWOC, WI 53066-5213",,,
460693,"N31W23320 GREEN RD, PEWAUKEE, WI 53072-4010",,,
460694,"N31W23320 GREEN RD, PEWAUKEE, WI 53072-4010",,,
460695,"N31W23320 GREEN RD, PEWAUKEE, WI 53072-4010",,,
460696,"N31W23320 GREEN RD, PEWAUKEE, WI 53072-4010",,,
460697,"N14W27995 SILVERNAIL RD, PEWAUKEE, WI 53072-5322",,,
460698,"N14W27995 SILVERNAIL RD, PEWAUKEE, WI 53072-5322",,,
460699,"N14W27995 SILVERNAIL RD, PEWAUKEE, WI 53072-5322",,,
460700,"W240N3065 PEWAUKEE RD, PEWAUKEE, WI 53072-4044",,,
460701,"W240N3065 PEWAUKEE RD, PEWAUKEE, WI 53072-4044",,,
460702,"W240N3065 PEWAUKEE RD, PEWAUKEE, WI 53072-4044",,,
460703,"2301 SPRINGDALE RD, WAUKESHA, WI 53186-2856",,,
460704,"2301 SPRINGDALE RD, WAUKESHA, WI 53186-2856",,,
460705,"1120 BAXTER ST, WAUKESHA, WI 53186",,,
460706,"1120 BAXTER ST, WAUKESHA, WI 53186",,,
460707,"1120 BAXTER ST, WAUKESHA, WI 53186",,,
460708,"1150 BAXTER ST, WAUKESHA, WI 53186-3884",,,
460709,"1150 BAXTER ST, WAUKESHA, WI 53186-3884",,,
460710,"1150 BAXTER ST, WAUKESHA, WI 53186-3884",,,
460711,"444 N MORELAND BLVD, WAUKESHA, WI 53188",,,
460712,"444 N MORELAND BLVD, WAUKESHA, WI 53188",,,
460713,"444 N MORELAND BLVD, WAUKESHA, WI 53188",,,
460714,"1900 AVIATION DR, WAUKESHA, WI 53188",,,
460715,"1900 AVIATION DR, WAUKESHA, WI 53188",,,
460716,"810 W COLLEGE AVE, WAUKESHA, WI 53186-5915",,,
460717,"810 W COLLEGE AVE, WAUKESHA, WI 53186-5915",,,
460718,"2400 LES PAUL PKWY LOWR, WAUKESHA, WI 53189",,,
460719,"2400 LES PAUL PKWY LOWR, WAUKESHA, WI 53189",,,
460720,"225 S HARTWELL AVE, WAUKESHA, WI 53186-6402",,,
460721,"225 S HARTWELL AVE, WAUKESHA, WI 53186-6402",,,
460722,"1714 PEARL ST, WAUKESHA, WI 53186",,,
460723,"1714 PEARL ST, WAUKESHA, WI 53186",,,
460724,"311 WALTON AVE, WAUKESHA, WI 53186",,,
460725,"311 WALTON AVE, WAUKESHA, WI 53186",,,
460726,"311 WALTON AVE, WAUKESHA, WI 53186",,,
460727,"413 WISCONSIN AVE, WAUKESHA, WI 53186-4735",,,
460728,"413 WISCONSIN AVE, WAUKESHA, WI 53186-4735",,,
460729,"413 WISCONSIN AVE, WAUKESHA, WI 53186-4735",,,
460730,"413 WISCONSIN AVE, WAUKESHA, WI 53186-4735",,,
460731,"413 WISCONSIN AVE, WAUKESHA, WI 53186-4735",,,
460732,"2400 LES PAUL PKWY LOWR, WAUKESHA, WI 53189",,,
460733,"2400 LES PAUL PKWY LOWR, WAUKESHA, WI 53189",,,
460734,"300 SENTRY DR, WAUKESHA, WI 53186",,,
460735,"300 SENTRY DR, WAUKESHA, WI 53186",,,
460736,"300 SENTRY DR, WAUKESHA, WI 53186",,,
460737,"3051 SUMMIT AVE, WAUKESHA, WI 53188-2660",,,
460738,"3051 SUMMIT AVE, WAUKESHA, WI 53188-2660",,,
460739,"444 N MORELAND BLVD, WAUKESHA, WI 53188",,,
460740,"444 N MORELAND BLVD, WAUKESHA, WI 53188",,,
460741,"300 SENTRY DR, WAUKESHA, WI 53186",,,
460742,"810 W COLLEGE AVE, WAUKESHA, WI 53186-5915",,,
460743,"2400 LES PAUL PKWY LOWR, WAUKESHA, WI 53189",,,
460744,"1714 PEARL ST, WAUKESHA, WI 53186",,,
460745,"311 WALTON AVE, WAUKESHA, WI 53186",,,
460746,"2400 LES PAUL PKWY LOWR, WAUKESHA, WI 53189",,,
460747,"2400 LES PAUL PKWY LOWR, WAUKESHA, WI 53189",,,
460748,"810 W COLLEGE AVE, WAUKESHA, WI 53186-5915",,,
460749,"810 W COLLEGE AVE, WAUKESHA, WI 53186-5915",,,
460750,"311 WALTON AVE, WAUKESHA, WI 53186",,,
460751,"2400 LES PAUL PKWY LOWR, WAUKESHA, WI 53189",,,
460752,"2400 LES PAUL PKWY LOWR, WAUKESHA, WI 53189",,,
460753,"810 W COLLEGE AVE, WAUKESHA, WI 53186-5915",,,
460754,"444 N MORELAND BLVD, WAUKESHA, WI 53188",,,
460755,"645 JANACEK RD, BROOKFIELD, WI 53045-6052",,,
460756,"645 JANACEK RD, BROOKFIELD, WI 53045-6052",,,
460757,"645 JANACEK RD, BROOKFIELD, WI 53045-6052",,,
460758,"645 JANACEK RD, BROOKFIELD, WI 53045-6052",,,
460759,"20275 DAVIDSON RD, BROOKFIELD, WI 53045-3552",,,
460760,"20275 DAVIDSON RD, BROOKFIELD, WI 53045-3552",,,
460761,"20275 DAVIDSON RD, BROOKFIELD, WI 53045-3552",,,
460762,"20275 DAVIDSON RD, BROOKFIELD, WI 53045-3552",,,
460763,"20275 DAVIDSON RD, BROOKFIELD, WI 53045-3552",,,
460764,"645 JANACEK RD, BROOKFIELD, WI 53045-6052",,,
460765,"W302N1254 MAPLE AVE, DELAFIELD, WI 53018-7000",,,
460766,"W302N1254 MAPLE AVE, DELAFIELD, WI 53018-7000",,,
460767,"W302N1254 MAPLE AVE, DELAFIELD, WI 53018-7000",,,
460768,"W302N1254 MAPLE AVE, DELAFIELD, WI 53018-7000",,,
460769,"N35W29288 NORTH SHORE DR, HARTLAND, WI 53029",,,
460770,"N35W29288 NORTH SHORE DR, HARTLAND, WI 53029",,,
460771,"N14W29489 SILVERNAIL RD, PEWAUKEE, WI 53072",,,
460772,"N14W29489 SILVERNAIL RD, PEWAUKEE, WI 53072",,,
460773,"N14W29489 SILVERNAIL RD, PEWAUKEE, WI 53072",,,
460774,"N14W29489 SILVERNAIL RD, PEWAUKEE, WI 53072",,,
460775,"N14W29489 SILVERNAIL RD, PEWAUKEE, WI 53072",,,
460776,"820 E MAIN ST, EAGLE, WI 53119-2143",,,
460777,"820 E MAIN ST, EAGLE, WI 53119-2143",,,
460778,"820 E MAIN ST, EAGLE, WI 53119-2143",,,
460779,"820 E MAIN ST, EAGLE, WI 53119-2143",,,
460780,"S43W31391 HIGHWAY 83, GENESEE DEPOT, WI 53127",,,
460781,"S43W31391 HIGHWAY 83, GENESEE DEPOT, WI 53127",,,
460782,"S43W31391 HIGHWAY 83, GENESEE DEPOT, WI 53127",,,
460783,"S43W31391 HIGHWAY 83, GENESEE DEPOT, WI 53127",,,
460784,"S43W31391 HIGHWAY 83, GENESEE DEPOT, WI 53127",,,
460785,"S43W31391 HIGHWAY 83, GENESEE DEPOT, WI 53127",,,
460786,"S43W31391 HIGHWAY 83, GENESEE DEPOT, WI 53127",,,
460787,"S43W31391 HIGHWAY 83, GENESEE DEPOT, WI 53127",,,
460788,"S43W31391 HIGHWAY 83, GENESEE DEPOT, WI 53127",,,
460789,"S43W31391 HIGHWAY 83, GENESEE DEPOT, WI 53127",,,
460790,"S43W31391 HIGHWAY 83, GENESEE DEPOT, WI 53127",,,
460791,"W234N8676 WOODSIDE RD, LISBON, WI 53089-1545",,,
460792,"W234N8676 WOODSIDE RD, LISBON, WI 53089-1545",,,
460793,"W220N4915 TOWN LINE ROAD, LISBON, WI 53059",,,
460794,"W220N4915 TOWN LINE ROAD, LISBON, WI 53059",,,
460795,"N54W26455 LISBON RD, PEWAUKEE, WI 53072-1218",,,
460796,"N54W26455 LISBON RD, PEWAUKEE, WI 53072-1218",,,
460797,"N75W31283 COUNTY ROAD VV, HARTLAND, WI 53029-8022",,,
460798,"N75W31283 COUNTY ROAD VV, HARTLAND, WI 53029-8022",,,
460799,"N75W31283 COUNTY ROAD VV, HARTLAND, WI 53029-8022",,,
460800,"N75W31283 COUNTY ROAD VV, HARTLAND, WI 53029-8022",,,
460801,"N75W31283 COUNTY ROAD VV, HARTLAND, WI 53029-8022",,,
460802,"N75W31283 COUNTY ROAD VV, HARTLAND, WI 53029-8022",,,
460803,"W335N7107 STONE BANK RD, OCONOMOWOC, WI 53066-1407",,,
460804,"W335N7107 STONE BANK RD, OCONOMOWOC, WI 53066-1407",,,
460805,"W335N7107 STONE BANK RD, OCONOMOWOC, WI 53066-1407",,,
460806,"W335N7107 STONE BANK RD, OCONOMOWOC, WI 53066-1407",,,
460807,"W335N7107 STONE BANK RD, OCONOMOWOC, WI 53066-1407",,,
460808,"W322S9230 BEULAH RD, MUKWONAGO, WI 53149",,,
460809,"W322S9230 BEULAH RD, MUKWONAGO, WI 53149",,,
460810,"W322S9230 BEULAH RD, MUKWONAGO, WI 53149",,,
460811,"W322S9230 BEULAH RD, MUKWONAGO, WI 53149",,,
460812,"W322S9230 BEULAH RD, MUKWONAGO, WI 53149",,,
460813,"W322S9230 BEULAH RD, MUKWONAGO, WI 53149",,,
460814,"W322S9230 BEULAH RD, MUKWONAGO, WI 53149",,,
460815,"W322S9230 BEULAH RD, MUKWONAGO, WI 53149",,,
460816,"W322S9230 BEULAH RD, MUKWONAGO, WI 53149",,,
460817,"W322S9230 BEULAH RD, MUKWONAGO, WI 53149",,,
460818,"W322S9230 BEULAH RD, MUKWONAGO, WI 53149",,,
460819,"W380N6931 N LAKE RD, OCONOMOWOC, WI 53066",,,
460820,"W380N6931 N LAKE RD, OCONOMOWOC, WI 53066",,,
460821,"W380N6931 N LAKE RD, OCONOMOWOC, WI 53066",,,
460822,"W380N6931 N LAKE RD, OCONOMOWOC, WI 53066",,,
460823,"W380N6931 N LAKE RD, OCONOMOWOC, WI 53066",,,
460824,"W380N6931 N LAKE RD, OCONOMOWOC, WI 53066",,,
460825,"W380N6931 N LAKE RD, OCONOMOWOC, WI 53066",,,
460826,"W380N6931 N LAKE RD, OCONOMOWOC, WI 53066",,,
460827,"W380N6931 N LAKE RD, OCONOMOWOC, WI 53066",,,
460828,"W380N6931 N LAKE RD, OCONOMOWOC, WI 53066",,,
460829,"W360S3337 STATE ROAD 67, DOUSMAN, WI 53118-9709",,,
460830,"W360S3337 STATE ROAD 67, DOUSMAN, WI 53118-9709",,,
460831,"W360S3337 STATE ROAD 67, DOUSMAN, WI 53118-9709",,,
460832,"W360S3337 STATE ROAD 67, DOUSMAN, WI 53118-9709",,,
460833,"W360S3337 STATE ROAD 67, DOUSMAN, WI 53118-9709",,,
460834,"W230S9185 NEVINS ST, BIG BEND, WI 53103-9722",,,
460835,"W230S9185 NEVINS ST, BIG BEND, WI 53103-9722",,,
460836,"W230S9185 NEVINS ST, BIG BEND, WI 53103-9722",,,
460837,"W230S9185 NEVINS ST, BIG BEND, WI 53103-9722",,,
460838,"12621 W HAMPTON AVE, BUTLER, WI 53007-1705",,,
460839,"12621 W HAMPTON AVE, BUTLER, WI 53007-1705",,,
460840,"12621 W HAMPTON AVE, BUTLER, WI 53007-1705",,,
460841,"31275 COUNTY ROAD K, HARTLAND, WI 53029",,,
460842,"31275 COUNTY ROAD K, HARTLAND, WI 53029",,,
460843,"31275 COUNTY ROAD K, HARTLAND, WI 53029",,,
460844,"118 S MAIN ST, DOUSMAN, WI 53118-9557",,,
460845,"118 S MAIN ST, DOUSMAN, WI 53118-9557",,,
460846,"118 S MAIN ST, DOUSMAN, WI 53118-9557",,,
460847,"118 S MAIN ST, DOUSMAN, WI 53118-9557",,,
460848,"118 S MAIN ST, DOUSMAN, WI 53118-9557",,,
460849,"820 E MAIN ST, EAGLE, WI 53119-2143",,,
460850,"820 E MAIN ST, EAGLE, WI 53119-2143",,,
460851,"13600 JUNEAU BLVD, ELM GROVE, WI 53122-1654",,,
460852,"13600 JUNEAU BLVD, ELM GROVE, WI 53122-1654",,,
460853,"13600 JUNEAU BLVD, ELM GROVE, WI 53122-1654",,,
460854,"13600 JUNEAU BLVD, ELM GROVE, WI 53122-1654",,,
460855,"13600 JUNEAU BLVD, ELM GROVE, WI 53122-1654",,,
460856,"13600 JUNEAU BLVD, ELM GROVE, WI 53122-1654",,,
460857,"13600 JUNEAU BLVD, ELM GROVE, WI 53122-1654",,,
460858,"13600 JUNEAU BLVD, ELM GROVE, WI 53122-1654",,,
460859,"313 CIRCLE DR, HARTLAND, WI 53029-1824",,,
460860,"313 CIRCLE DR, HARTLAND, WI 53029-1824",,,
460861,"313 CIRCLE DR, HARTLAND, WI 53029-1824",,,
460862,"313 CIRCLE DR, HARTLAND, WI 53029-1824",,,
460863,"313 CIRCLE DR, HARTLAND, WI 53029-1824",,,
460864,"313 CIRCLE DR, HARTLAND, WI 53029-1824",,,
460865,"313 CIRCLE DR, HARTLAND, WI 53029-1824",,,
460866,"313 CIRCLE DR, HARTLAND, WI 53029-1824",,,
460867,"313 CIRCLE DR, HARTLAND, WI 53029-1824",,,
460868,"313 CIRCLE DR, HARTLAND, WI 53029-1824",,,
460869,"313 CIRCLE DR, HARTLAND, WI 53029-1824",,,
460870,"313 CIRCLE DR, HARTLAND, WI 53029-1824",,,
460871,"313 CIRCLE DR, HARTLAND, WI 53029-1824",,,
460872,"313 CIRCLE DR, HARTLAND, WI 53029-1824",,,
460873,"313 CIRCLE DR, HARTLAND, WI 53029-1824",,,
460874,"6996 PENNSYLVANIA ST, OCONOMOWOC, WI 53066",,,
460875,"20399 W MAIN ST, LANNON, WI 53046-9606",,,
460876,"20399 W MAIN ST, LANNON, WI 53046-9606",,,
460877,"N88W17658 CHRISTMAN RD, MENOMONEE FALLS, WI 53051-2630",,,
460878,"N88W17658 CHRISTMAN RD, MENOMONEE FALLS, WI 53051-2630",,,
460879,"N88W17658 CHRISTMAN RD, MENOMONEE FALLS, WI 53051-2630",,,
460880,"N88W17658 CHRISTMAN RD, MENOMONEE FALLS, WI 53051-2630",,,
460881,"N88W17658 CHRISTMAN RD, MENOMONEE FALLS, WI 53051-2630",,,
460882,"N88W17658 CHRISTMAN RD, MENOMONEE FALLS, WI 53051-2630",,,
460883,"N88W17658 CHRISTMAN RD, MENOMONEE FALLS, WI 53051-2630",,,
460884,"N88W17658 CHRISTMAN RD, MENOMONEE FALLS, WI 53051-2630",,,
460885,"N88W17658 CHRISTMAN RD, MENOMONEE FALLS, WI 53051-2630",,,
460886,"N88W17658 CHRISTMAN RD, MENOMONEE FALLS, WI 53051-2630",,,
460887,"N56W16300 SILVER SPRING DR, MENOMONEE FALLS, WI 53051-5620",,,
460888,"N56W16300 SILVER SPRING DR, MENOMONEE FALLS, WI 53051-5620",,,
460889,"N56W16300 SILVER SPRING DR, MENOMONEE FALLS, WI 53051-5620",,,
460890,"N56W16300 SILVER SPRING DR, MENOMONEE FALLS, WI 53051-5620",,,
460891,"N56W16300 SILVER SPRING DR, MENOMONEE FALLS, WI 53051-5620",,,
460892,"N56W16300 SILVER SPRING DR, MENOMONEE FALLS, WI 53051-5620",,,
460893,"N56W16300 SILVER SPRING DR, MENOMONEE FALLS, WI 53051-5620",,,
460894,"N56W16300 SILVER SPRING DR, MENOMONEE FALLS, WI 53051-5620",,,
460895,"N56W16300 SILVER SPRING DR, MENOMONEE FALLS, WI 53051-5620",,,
460896,"N56W16300 SILVER SPRING DR, MENOMONEE FALLS, WI 53051-5620",,,
460897,"N56W16300 SILVER SPRING DR, MENOMONEE FALLS, WI 53051-5620",,,
460898,"N56W16300 SILVER SPRING DR, MENOMONEE FALLS, WI 53051-5620",,,
460899,"N56W16300 SILVER SPRING DR, MENOMONEE FALLS, WI 53051-5620",,,
460900,"W282N6996 MAIN ST, MERTON, WI 53056",,,
460901,"W282N6996 MAIN ST, MERTON, WI 53056",,,
460902,"W282N6996 MAIN ST, MERTON, WI 53056",,,
460903,"W282N6996 MAIN ST, MERTON, WI 53056",,,
460904,"W282N6996 MAIN ST, MERTON, WI 53056",,,
460905,"W282N6996 MAIN ST, MERTON, WI 53056",,,
460906,"440 RIVERCREST CT, MUKWONAGO, WI 53149-1759",,,
460907,"440 RIVERCREST CT, MUKWONAGO, WI 53149-1759",,,
460908,"440 RIVERCREST CT, MUKWONAGO, WI 53149-1759",,,
460909,"440 RIVERCREST CT, MUKWONAGO, WI 53149-1759",,,
460910,"440 RIVERCREST CT, MUKWONAGO, WI 53149-1759",,,
460911,"440 RIVERCREST CT, MUKWONAGO, WI 53149-1759",,,
460912,"440 RIVERCREST CT, MUKWONAGO, WI 53149-1759",,,
460913,"440 RIVERCREST CT, MUKWONAGO, WI 53149-1759",,,
460914,"440 RIVERCREST CT, MUKWONAGO, WI 53149-1759",,,
460915,"440 RIVERCREST CT, MUKWONAGO, WI 53149-1759",,,
460916,"440 RIVERCREST CT, MUKWONAGO, WI 53149-1759",,,
460917,"N44W32950 WATERTOWN PLANK RD, NASHOTAH, WI 53058-9703",,,
460918,"N44W32950 WATERTOWN PLANK RD, NASHOTAH, WI 53058-9703",,,
460919,"N44W32950 WATERTOWN PLANK RD, NASHOTAH, WI 53058-9703",,,
460920,"130 N HARRISON ST, NORTH PRAIRIE, WI 53153-9791",,,
460921,"130 N HARRISON ST, NORTH PRAIRIE, WI 53153-9791",,,
460922,"130 N HARRISON ST, NORTH PRAIRIE, WI 53153-9791",,,
460923,"130 N HARRISON ST, NORTH PRAIRIE, WI 53153-9791",,,
460924,"35328 PABST RD, OCONOMOWOC, WI 53066-4516",,,
460925,"800 MAIN ST, PEWAUKEE, WI 53072",,,
460926,"800 MAIN ST, PEWAUKEE, WI 53072",,,
460927,"800 MAIN ST, PEWAUKEE, WI 53072",,,
460928,"800 MAIN ST, PEWAUKEE, WI 53072",,,
460929,"800 MAIN ST, PEWAUKEE, WI 53072",,,
460930,"235 HICKORY ST, PEWAUKEE, WI 53072-3533",,,
460931,"235 HICKORY ST, PEWAUKEE, WI 53072-3533",,,
460932,"235 HICKORY ST, PEWAUKEE, WI 53072-3533",,,
460933,"235 HICKORY ST, PEWAUKEE, WI 53072-3533",,,
460934,"235 HICKORY ST, PEWAUKEE, WI 53072-3533",,,
460935,"37100 DELAFIELD RD, SUMMIT, WI 53066",,,
460936,"37100 DELAFIELD RD, SUMMIT, WI 53066",,,
460937,"37100 DELAFIELD RD, SUMMIT, WI 53066",,,
460938,"37100 DELAFIELD RD, SUMMIT, WI 53066",,,
460939,"37100 DELAFIELD RD, SUMMIT, WI 53066",,,
460940,"37100 DELAFIELD RD, SUMMIT, WI 53066",,,
460941,"N64W23760 MAIN ST, SUSSEX, WI 53089-3120",,,
460942,"N64W23760 MAIN ST, SUSSEX, WI 53089-3120",,,
460943,"N64W23760 MAIN ST, SUSSEX, WI 53089-3120",,,
460944,"N64W23760 MAIN ST, SUSSEX, WI 53089-3120",,,
460945,"N64W23760 MAIN ST, SUSSEX, WI 53089-3120",,,
460946,"N64W23760 MAIN ST, SUSSEX, WI 53089-3120",,,
460947,"N64W23760 MAIN ST, SUSSEX, WI 53089-3120",,,
460948,"N64W23760 MAIN ST, SUSSEX, WI 53089-3120",,,
460949,"N64W23760 MAIN ST, SUSSEX, WI 53089-3120",,,
460950,"N64W23760 MAIN ST, SUSSEX, WI 53089-3120",,,
460951,"N64W23760 MAIN ST, SUSSEX, WI 53089-3120",,,
460952,"N64W23760 MAIN ST, SUSSEX, WI 53089-3120",,,
460953,"W249S8910 CENTER DR, BIG BEND, WI 53103-8900",,,
460954,"W249S8910 CENTER DR, BIG BEND, WI 53103-8900",,,
460955,"W249S8910 CENTER DR, BIG BEND, WI 53103-8900",,,
460956,"W249S8910 CENTER DR, BIG BEND, WI 53103-8900",,,
460957,"W249S8910 CENTER DR, BIG BEND, WI 53103-8900",,,
460958,"W249S8910 CENTER DR, BIG BEND, WI 53103-8900",,,
460959,"W249S8910 CENTER DR, BIG BEND, WI 53103-8900",,,
460960,"W249S8910 CENTER DR, BIG BEND, WI 53103-8900",,,
460961,"W249S8910 CENTER DR, BIG BEND, WI 53103-8900",,,
460962,"W249S8910 CENTER DR, BIG BEND, WI 53103-8900",,,
460963,"W249S8910 CENTER DR, BIG BEND, WI 53103-8900",,,
460964,"500 E SUMMIT AVE, WALES, WI 53183",,,
460965,"500 E SUMMIT AVE, WALES, WI 53183",,,
460966,"500 E SUMMIT AVE, WALES, WI 53183",,,
460967,"500 E SUMMIT AVE, WALES, WI 53183",,,
460968,"500 E SUMMIT AVE, WALES, WI 53183",,,
460969,"W250S3567 CENTER RD, WAUKESHA, WI 53189-7365",,,
460970,"W250S3567 CENTER RD, WAUKESHA, WI 53189-7365",,,
460971,"W250S3567 CENTER RD, WAUKESHA, WI 53189-7365",,,
460972,"W250S3567 CENTER RD, WAUKESHA, WI 53189-7365",,,
460973,"W250S3567 CENTER RD, WAUKESHA, WI 53189-7365",,,
460974,"W250S3567 CENTER RD, WAUKESHA, WI 53189-7365",,,
460975,"W250S3567 CENTER RD, WAUKESHA, WI 53189-7365",,,
460976,"W250S3567 CENTER RD, WAUKESHA, WI 53189-7365",,,
460977,"W250S3567 CENTER RD, WAUKESHA, WI 53189-7365",,,
460978,"W250S3567 CENTER RD, WAUKESHA, WI 53189-7365",,,
460979,"W250S3567 CENTER RD, WAUKESHA, WI 53189-7365",,,
460980,"W250S3567 CENTER RD, WAUKESHA, WI 53189-7365",,,
460981,"30 S MAIN ST, CLINTONVILLE, WI 54929",,,
460982,"30 S MAIN ST, CLINTONVILLE, WI 54929",,,
460983,"30 S MAIN ST, CLINTONVILLE, WI 54929",,,
460984,"30 S MAIN ST, CLINTONVILLE, WI 54929",,,
460985,"30 S MAIN ST, CLINTONVILLE, WI 54929",,,
460986,"30 S MAIN ST, CLINTONVILLE, WI 54929",,,
460987,"30 S MAIN ST, CLINTONVILLE, WI 54929",,,
460988,"30 S MAIN ST, CLINTONVILLE, WI 54929",,,
460989,"30 S MAIN ST, CLINTONVILLE, WI 54929",,,
460990,"30 S MAIN ST, CLINTONVILLE, WI 54929",,,
460991,"500 S BRIDGE ST, MANAWA, WI 54949-9533",,,
460992,"500 S BRIDGE ST, MANAWA, WI 54949-9533",,,
460993,"500 S BRIDGE ST, MANAWA, WI 54949-9533",,,
460994,"128 W GARFIELD AVE, MARION, WI 54950",,,
460995,"128 W GARFIELD AVE, MARION, WI 54950",,,
460996,"128 W GARFIELD AVE, MARION, WI 54950",,,
460997,"709 W BECKERT RD, NEW LONDON, WI 54961-2405",,,
460998,"709 W BECKERT RD, NEW LONDON, WI 54961-2405",,,
460999,"709 W BECKERT RD, NEW LONDON, WI 54961-2405",,,
461000,"600 W WASHINGTON ST, NEW LONDON, WI 54961-1765",,,
461001,"600 W WASHINGTON ST, NEW LONDON, WI 54961-1765",,,
461002,"110 E HANCOCK ST, NEW LONDON, WI 54961-1827",,,
461003,"110 E HANCOCK ST, NEW LONDON, WI 54961-1827",,,
461004,"215 N SHAWANO ST, NEW LONDON, WI 54961-1147",,,
461005,"215 N SHAWANO ST, NEW LONDON, WI 54961-1147",,,
461006,"407 SCHOOL ST, WAUPACA, WI 54981-1800",,,
461007,"407 SCHOOL ST, WAUPACA, WI 54981-1800",,,
461008,"407 SCHOOL ST, WAUPACA, WI 54981-1800",,,
461009,"407 SCHOOL ST, WAUPACA, WI 54981-1800",,,
461010,"407 SCHOOL ST, WAUPACA, WI 54981-1800",,,
461011,"407 SCHOOL ST, WAUPACA, WI 54981-1800",,,
461012,"407 SCHOOL ST, WAUPACA, WI 54981-1800",,,
461013,"407 SCHOOL ST, WAUPACA, WI 54981-1800",,,
461014,"407 SCHOOL ST, WAUPACA, WI 54981-1800",,,
461015,"407 SCHOOL ST, WAUPACA, WI 54981-1800",,,
461016,"407 SCHOOL ST, WAUPACA, WI 54981-1800",,,
461017,"407 SCHOOL ST, WAUPACA, WI 54981-1800",,,
461018,"407 SCHOOL ST, WAUPACA, WI 54981-1800",,,
461019,"109 E MAIN ST, WEYAUWEGA, WI 54983",,,
461020,"109 E MAIN ST, WEYAUWEGA, WI 54983",,,
461021,"109 E MAIN ST, WEYAUWEGA, WI 54983",,,
461022,"109 E MAIN ST, WEYAUWEGA, WI 54983",,,
461023,"E9107 SILVER CREEK RD, BEAR CREEK, WI 54922-8915",,,
461024,"E9181 STATE ROAD 96, READFIELD, WI 54969",,,
461025,"E9181 STATE ROAD 96, READFIELD, WI 54969",,,
461026,"N2285 STATE ROAD 22, WAUPACA, WI 54981-8261",,,
461027,"N2285 STATE ROAD 22, WAUPACA, WI 54981-8261",,,
461028,"N2285 STATE ROAD 22, WAUPACA, WI 54981-8261",,,
461029,"N2285 STATE ROAD 22, WAUPACA, WI 54981-8261",,,
461030,"N11297 TOWN HALL RD, MARION, WI 54950-9610",,,
461031,"N11297 TOWN HALL RD, MARION, WI 54950-9610",,,
461032,"E913 PRAIRIE VIEW LN, WAUPACA, WI 54981-8651",,,
461033,"E913 PRAIRIE VIEW LN, WAUPACA, WI 54981-8651",,,
461034,"E913 PRAIRIE VIEW LN, WAUPACA, WI 54981-8651",,,
461035,"E913 PRAIRIE VIEW LN, WAUPACA, WI 54981-8651",,,
461036,"E913 PRAIRIE VIEW LN, WAUPACA, WI 54981-8651",,,
461037,"E913 PRAIRIE VIEW LN, WAUPACA, WI 54981-8651",,,
461038,"E7403 STATE ROAD 110, FREMONT, WI 54940-9159",,,
461039,"E7403 STATE ROAD 110, FREMONT, WI 54940-9159",,,
461040,"N9880 STATE ROAD 49, IOLA, WI 54945",,,
461041,"E2544 COUNTY ROAD GG, IOLA, WI 54945",,,
461042,"E2544 COUNTY ROAD GG, IOLA, WI 54945",,,
461043,"170 DEPOT ST, IOLA, WI 54945",,,
461044,"170 DEPOT ST, IOLA, WI 54945",,,
461045,"525 S MAIN ST, CLINTONVILLE, WI 54929",,,
461046,"525 S MAIN ST, CLINTONVILLE, WI 54929",,,
461047,"N5844 BUELOW RD, NEW LONDON, WI 54961-8502",,,
461048,"N5844 BUELOW RD, NEW LONDON, WI 54961-8502",,,
461049,"N5844 BUELOW RD, NEW LONDON, WI 54961-8502",,,
461050,"N1315 COUNTY ROAD A, WAUPACA, WI 54981-9053",,,
461051,"N1315 COUNTY ROAD A, WAUPACA, WI 54981-9053",,,
461052,"N1315 COUNTY ROAD A, WAUPACA, WI 54981-9053",,,
461053,"E6325 COUNTY ROAD N, MANAWA, WI 54949-8706",,,
461054,"E6325 COUNTY ROAD N, MANAWA, WI 54949-8706",,,
461055,"E6325 COUNTY ROAD N, MANAWA, WI 54949-8706",,,
461056,"N10891 JEPSON RD, CLINTONVILLE, WI 54929",,,
461057,"E8514 WEYAUWEGA RD, NEW LONDON, WI 54961-7934",,,
461058,"E8514 WEYAUWEGA RD, NEW LONDON, WI 54961-7934",,,
461059,"N2505 BEAN CITY RD, NEW LONDON, WI 54961-8903",,,
461060,"N2505 BEAN CITY RD, NEW LONDON, WI 54961-8903",,,
461061,"N2505 BEAN CITY RD, NEW LONDON, WI 54961-8903",,,
461062,"E6132 STATE ROAD 54, NEW LONDON, WI 54961",,,
461063,"E6132 STATE ROAD 54, NEW LONDON, WI 54961",,,
461064,"E6132 STATE ROAD 54, NEW LONDON, WI 54961",,,
461065,"504 MAIN ST, OGDENSBURG, WI 54962-9335",,,
461066,"504 MAIN ST, OGDENSBURG, WI 54962-9335",,,
461067,"349 N MAIN ST, SCANDINAVIA, WI 54977",,,
461068,"349 N MAIN ST, SCANDINAVIA, WI 54977",,,
461069,"E6592 STATE ROAD 22, BEAR CREEK, WI 54922-9642",,,
461070,"E6592 STATE ROAD 22, BEAR CREEK, WI 54922-9642",,,
461071,"N3514 COUNTY RD E, WAUPACA, WI 54981",,,
461072,"N3514 COUNTY RD E, WAUPACA, WI 54981",,,
461073,"303 N MILL ST, WEYAUWEGA, WI 54983",,,
461074,"120 N MAIN ST, BIG FALLS, WI 54926",,,
461075,"220 S MAIN ST, BIG FALLS, WI 54926",,,
461076,"130 DEPOT ST, EMBARRASS, WI 54933",,,
461077,"317 WOLF RIVER DR, FREMONT, WI 54940-9054",,,
461078,"180 S MAIN ST, IOLA, WI 54945-9689",,,
461079,"180 S MAIN ST, IOLA, WI 54945-9689",,,
461080,"504 MAIN ST, OGDENSBURG, WI 54962-9335",,,
461081,"349 N MAIN ST, SCANDINAVIA, WI 54977",,,
461082,"147 MEMORIAL DR, BERLIN, WI 54923-1203",,,
461083,"210 E MAIN ST, WAUTOMA, WI 54982-9593",,,
461084,"210 E MAIN ST, WAUTOMA, WI 54982-9593",,,
461085,"210 E MAIN ST, WAUTOMA, WI 54982-9593",,,
461086,"W2319 STATE ROAD 21, BERLIN, WI 54923-9718",,,
461087,"W218 MAIN ST, FREMONT, WI 54940-8520",,,
461088,"W218 MAIN ST, FREMONT, WI 54940-8520",,,
461089,"155 N FRONT ST, COLOMA, WI 54930",,,
461090,"N1470 STATE ROAD 22, WAUTOMA, WI 54982-8028",,,
461091,"N1470 STATE ROAD 22, WAUTOMA, WI 54982-8028",,,
461092,"W10760 COUNTY ROAD BC, HANCOCK, WI 54943-7691",,,
461093,"420 N JEFFERSON ST, HANCOCK, WI 54943-9647",,,
461094,"N4819 COUNTY ROAD E, PINE RIVER, WI 54965-9523",,,
461095,"N4819 COUNTY ROAD E, PINE RIVER, WI 54965-9523",,,
461096,"N4819 COUNTY ROAD E, PINE RIVER, WI 54965-9523",,,
461097,"N1279 COUNTY ROAD Z, WAUTOMA, WI 54982-5900",,,
461098,"N1279 COUNTY ROAD Z, WAUTOMA, WI 54982-5900",,,
461099,"N1279 COUNTY ROAD Z, WAUTOMA, WI 54982-5900",,,
461100,"N1279 COUNTY ROAD Z, WAUTOMA, WI 54982-5900",,,
461101,"N3137 21ST LN, WAUTOMA, WI 54982",,,
461102,"N3137 21ST LN, WAUTOMA, WI 54982",,,
461103,"126 S MAIN ST, PLAINFIELD, WI 54966",,,
461104,"W13505 STATE ROAD 73, PLAINFIELD, WI 54966",,,
461105,"N4398 SPRING ST, POY SIPPI, WI 54967-8437",,,
461106,"W11127 CUMBERLAND RD, COLOMA, WI 54930-8743",,,
461107,"W11127 CUMBERLAND RD, COLOMA, WI 54930-8743",,,
461108,"545 FRONT ST, WILD ROSE, WI 54984-6887",,,
461109,"545 FRONT ST, WILD ROSE, WI 54984-6887",,,
461110,"W4022 ARCHER AVE, PINE RIVER, WI 54965",,,
461111,"W7033 COUNTY ROAD GH, WILD ROSE, WI 54984-6615",,,
461112,"W7033 COUNTY ROAD GH, WILD ROSE, WI 54984-6615",,,
461113,"N1708 29TH LN, REDGRANITE, WI 54970",,,
461114,"W8241 BROWN DEER DR, WAUTOMA, WI 54982-7173",,,
461115,"W8241 BROWN DEER DR, WAUTOMA, WI 54982-7173",,,
461116,"W8241 BROWN DEER DR, WAUTOMA, WI 54982-7173",,,
461117,"155 N FRONT ST RM A, COLOMA, WI 54930",,,
461118,"420 N JEFFERSON ST, HANCOCK, WI 54943-9647",,,
461119,"123 PARK RD, REDGRANITE, WI 54970",,,
461120,"114 W CLARK ST, PLAINFIELD, WI 54966",,,
461121,"161 DEARBORN ST, REDGRANITE, WI 54970-9126",,,
461122,"161 DEARBORN ST, REDGRANITE, WI 54970-9126",,,
461123,"161 DEARBORN ST, REDGRANITE, WI 54970-9126",,,
461124,"500 MAIN ST, WILD ROSE, WI 54984-6908",,,
461125,"425 W WATER ST, APPLETON, WI 54911",,,
461126,"425 W WATER ST, APPLETON, WI 54911",,,
461127,"116 MAIN ST, MENASHA, WI 54952-3151",,,
461128,"116 MAIN ST, MENASHA, WI 54952-3151",,,
461129,"116 MAIN ST, MENASHA, WI 54952-3151",,,
461130,"116 MAIN ST, MENASHA, WI 54952-3151",,,
461131,"116 MAIN ST, MENASHA, WI 54952-3151",,,
461132,"105 ICE ST, MENASHA, WI 54952-3223",,,
461133,"105 ICE ST, MENASHA, WI 54952-3223",,,
461134,"105 ICE ST, MENASHA, WI 54952-3223",,,
461135,"105 ICE ST, MENASHA, WI 54952-3223",,,
461136,"600 RACINE ST, MENASHA, WI 54952-2340",,,
461137,"600 RACINE ST, MENASHA, WI 54952-2340",,,
461138,"600 RACINE ST, MENASHA, WI 54952-2340",,,
461139,"600 RACINE ST, MENASHA, WI 54952-2340",,,
461140,"600 RACINE ST, MENASHA, WI 54952-2340",,,
461141,"600 RACINE ST, MENASHA, WI 54952-2340",,,
461142,"600 RACINE ST, MENASHA, WI 54952-2340",,,
461143,"600 RACINE ST, MENASHA, WI 54952-2340",,,
461144,"600 RACINE ST, MENASHA, WI 54952-2340",,,
461145,"600 RACINE ST, MENASHA, WI 54952-2340",,,
461146,"600 RACINE ST, MENASHA, WI 54952-2340",,,
461147,"600 RACINE ST, MENASHA, WI 54952-2340",,,
461148,"600 RACINE ST, MENASHA, WI 54952-2340",,,
461149,"600 RACINE ST, MENASHA, WI 54952-2340",,,
461150,"600 RACINE ST, MENASHA, WI 54952-2340",,,
461151,"600 RACINE ST, MENASHA, WI 54952-2340",,,
461152,"600 RACINE ST, MENASHA, WI 54952-2340",,,
461153,"600 RACINE ST, MENASHA, WI 54952-2340",,,
461154,"600 RACINE ST, MENASHA, WI 54952-2340",,,
461155,"600 RACINE ST, MENASHA, WI 54952-2340",,,
461156,"600 RACINE ST, MENASHA, WI 54952-2340",,,
461157,"600 RACINE ST, MENASHA, WI 54952-2340",,,
461158,"974 9TH ST, MENASHA, WI 54952-2544",,,
461159,"974 9TH ST, MENASHA, WI 54952-2544",,,
461160,"974 9TH ST, MENASHA, WI 54952-2544",,,
461161,"974 9TH ST, MENASHA, WI 54952-2544",,,
461162,"974 9TH ST, MENASHA, WI 54952-2544",,,
461163,"974 9TH ST, MENASHA, WI 54952-2544",,,
461164,"974 9TH ST, MENASHA, WI 54952-2544",,,
461165,"974 9TH ST, MENASHA, WI 54952-2544",,,
461166,"699 S GREEN BAY ROAD, NEENAH, WI 54956",,,
461167,"699 S GREEN BAY ROAD, NEENAH, WI 54956",,,
461168,"699 S GREEN BAY ROAD, NEENAH, WI 54956",,,
461169,"699 S GREEN BAY ROAD, NEENAH, WI 54956",,,
461170,"699 S GREEN BAY ROAD, NEENAH, WI 54956",,,
461171,"699 S GREEN BAY ROAD, NEENAH, WI 54956",,,
461172,"699 S GREEN BAY ROAD, NEENAH, WI 54956",,,
461173,"699 S GREEN BAY ROAD, NEENAH, WI 54956",,,
461174,"699 S GREEN BAY ROAD, NEENAH, WI 54956",,,
461175,"699 S GREEN BAY ROAD, NEENAH, WI 54956",,,
461176,"699 S GREEN BAY ROAD, NEENAH, WI 54956",,,
461177,"699 S GREEN BAY ROAD, NEENAH, WI 54956",,,
461178,"699 S GREEN BAY ROAD, NEENAH, WI 54956",,,
461179,"699 S GREEN BAY ROAD, NEENAH, WI 54956",,,
461180,"699 S GREEN BAY ROAD, NEENAH, WI 54956",,,
461181,"699 S GREEN BAY ROAD, NEENAH, WI 54956",,,
461182,"699 S GREEN BAY ROAD, NEENAH, WI 54956",,,
461183,"699 S GREEN BAY ROAD, NEENAH, WI 54956",,,
461184,"699 S GREEN BAY ROAD, NEENAH, WI 54956",,,
461185,"699 S GREEN BAY ROAD, NEENAH, WI 54956",,,
461186,"699 S GREEN BAY ROAD, NEENAH, WI 54956",,,
461187,"699 S GREEN BAY ROAD, NEENAH, WI 54956",,,
461188,"699 S GREEN BAY ROAD, NEENAH, WI 54956",,,
461189,"699 S GREEN BAY ROAD, NEENAH, WI 54956",,,
461190,"699 S GREEN BAY ROAD, NEENAH, WI 54956",,,
461191,"699 S GREEN BAY ROAD, NEENAH, WI 54956",,,
461192,"699 S GREEN BAY ROAD, NEENAH, WI 54956",,,
461193,"699 S GREEN BAY ROAD, NEENAH, WI 54956",,,
461194,"130 W LARRABEE ST, OMRO, WI 54963-1330",,,
461195,"130 W LARRABEE ST, OMRO, WI 54963-1330",,,
461196,"130 W LARRABEE ST, OMRO, WI 54963-1330",,,
461197,"130 W LARRABEE ST, OMRO, WI 54963-1330",,,
461198,"130 W LARRABEE ST, OMRO, WI 54963-1330",,,
461199,"130 W LARRABEE ST, OMRO, WI 54963-1330",,,
461200,"130 W LARRABEE ST, OMRO, WI 54963-1330",,,
461201,"130 W LARRABEE ST, OMRO, WI 54963-1330",,,
461202,"130 W LARRABEE ST, OMRO, WI 54963-1330",,,
461203,"200 N CAMPBELL RD, OSHKOSH, WI 54902-3430",,,
461204,"200 N CAMPBELL RD, OSHKOSH, WI 54902-3430",,,
461205,"785 HIGH AVE, OSHKOSH, WI 54901",,,
461206,"785 HIGH AVE, OSHKOSH, WI 54901",,,
461207,"808 N MAIN ST, OSHKOSH, WI 54901-4447",,,
461208,"808 N MAIN ST, OSHKOSH, WI 54901-4447",,,
461209,"106 WASHINGTON AVE, OSHKOSH, WI 54901",,,
461210,"106 WASHINGTON AVE, OSHKOSH, WI 54901",,,
461211,"370 BOWEN ST, OSHKOSH, WI 54901",,,
461212,"370 BOWEN ST, OSHKOSH, WI 54901",,,
461213,"1013 MINNESOTA ST, OSHKOSH, WI 54902",,,
461214,"1013 MINNESOTA ST, OSHKOSH, WI 54902",,,
461215,"145 W 24TH AVE, OSHKOSH, WI 54902-7211",,,
461216,"145 W 24TH AVE, OSHKOSH, WI 54902-7211",,,
461217,"1025 W 5TH AVE, OSHKOSH, WI 54902",,,
461218,"1025 W 5TH AVE, OSHKOSH, WI 54902",,,
461219,"1062 N KOELLER ST, OSHKOSH, WI 54902-3245",,,
461220,"1062 N KOELLER ST, OSHKOSH, WI 54902-3245",,,
461221,"1585 S OAKWOOD RD, OSHKOSH, WI 54904",,,
461222,"1585 S OAKWOOD RD, OSHKOSH, WI 54904",,,
461223,"2580 W 9TH AVE, OSHKOSH, WI 54904-8125",,,
461224,"2580 W 9TH AVE, OSHKOSH, WI 54904-8125",,,
461225,"2580 W 9TH AVE, OSHKOSH, WI 54904-8125",,,
461226,"1100 E MURDOCK AVE, OSHKOSH, WI 54901-2432",,,
461227,"1100 E MURDOCK AVE, OSHKOSH, WI 54901-2432",,,
461228,"1100 E MURDOCK AVE, OSHKOSH, WI 54901-2432",,,
461229,"175 W FERNAU AVE, OSHKOSH, WI 54901-1218",,,
461230,"175 W FERNAU AVE, OSHKOSH, WI 54901-1218",,,
461231,"175 W FERNAU AVE, OSHKOSH, WI 54901-1218",,,
461232,"1860 WISCONSIN ST, OSHKOSH, WI 54901-2275",,,
461233,"1860 WISCONSIN ST, OSHKOSH, WI 54901-2275",,,
461234,"1860 WISCONSIN ST, OSHKOSH, WI 54901-2275",,,
461235,"1355 W 20TH AVE, OSHKOSH, WI 54902",,,
461236,"1355 W 20TH AVE, OSHKOSH, WI 54902",,,
461237,"500 E COUNTY ROAD Y, OSHKOSH, WI 54901",,,
461238,"500 E COUNTY ROAD Y, OSHKOSH, WI 54901",,,
461239,"500 E COUNTY ROAD Y, OSHKOSH, WI 54901",,,
461240,"1355 W 20TH AVE, OSHKOSH, WI 54902",,,
461241,"1100 E MURDOCK AVE, OSHKOSH, WI 54901-2432",,,
461242,"1585 S OAKWOOD RD, OSHKOSH, WI 54904",,,
461243,"145 W 24TH AVE, OSHKOSH, WI 54902-7211",,,
461244,"1062 N KOELLER ST, OSHKOSH, WI 54902-3245",,,
461245,"1585 S OAKWOOD RD, OSHKOSH, WI 54904",,,
461246,"2580 W 9TH AVE, OSHKOSH, WI 54904-8125",,,
461247,"1062 N KOELLER ST, OSHKOSH, WI 54902-3245",,,
461248,"1585 S OAKWOOD RD, OSHKOSH, WI 54904",,,
461249,"200 N CAMPBELL RD, OSHKOSH, WI 54902-3430",,,
461250,"145 W 24TH AVE, OSHKOSH, WI 54902-7211",,,
461251,"15 N OAKWOOD RD, OSHKOSH, WI 54904-7826",,,
461252,"15 N OAKWOOD RD, OSHKOSH, WI 54904-7826",,,
461253,"15 N OAKWOOD RD, OSHKOSH, WI 54904-7826",,,
461254,"15 N OAKWOOD RD, OSHKOSH, WI 54904-7826",,,
461255,"15 N OAKWOOD RD, OSHKOSH, WI 54904-7826",,,
461256,"15 N OAKWOOD RD, OSHKOSH, WI 54904-7826",,,
461257,"1072 HONEY CREEK RD, OSHKOSH, WI 54904-9399",,,
461258,"1072 HONEY CREEK RD, OSHKOSH, WI 54904-9399",,,
461259,"1072 HONEY CREEK RD, OSHKOSH, WI 54904-9399",,,
461260,"1072 HONEY CREEK RD, OSHKOSH, WI 54904-9399",,,
461261,"380 E BLACK WOLF AVE, OSHKOSH, WI 54902-9139",,,
461262,"380 E BLACK WOLF AVE, OSHKOSH, WI 54902-9139",,,
461263,"380 E BLACK WOLF AVE, OSHKOSH, WI 54902-9139",,,
461264,"8348 COUNTY ROAD T, LARSEN, WI 54947-9730",,,
461265,"8348 COUNTY ROAD T, LARSEN, WI 54947-9730",,,
461266,"8348 COUNTY ROAD T, LARSEN, WI 54947-9730",,,
461267,"8348 COUNTY ROAD T, LARSEN, WI 54947-9730",,,
461268,"8348 COUNTY ROAD T, LARSEN, WI 54947-9730",,,
461269,"8348 COUNTY ROAD T, LARSEN, WI 54947-9730",,,
461270,"8348 COUNTY ROAD T, LARSEN, WI 54947-9730",,,
461271,"1600 BREEZEWOOD LN, NEENAH, WI 54956-4410",,,
461272,"1600 BREEZEWOOD LN, NEENAH, WI 54956-4410",,,
461273,"1600 BREEZEWOOD LN, NEENAH, WI 54956-4410",,,
461274,"1600 BREEZEWOOD LN, NEENAH, WI 54956-4410",,,
461275,"3790 PICKETT RD, OSHKOSH, WI 54904-6208",,,
461276,"3790 PICKETT RD, OSHKOSH, WI 54904-6208",,,
461277,"1475 COUNTY RD E, RIPON, WI 54971-9125",,,
461278,"4205 RIVERMOOR RD, OMRO, WI 54963-9419",,,
461279,"4205 RIVERMOOR RD, OMRO, WI 54963-9419",,,
461280,"4205 RIVERMOOR RD, OMRO, WI 54963-9419",,,
461281,"230 E COUNTY RD Y, OSHKOSH, WI 54901-9715",,,
461282,"230 E COUNTY RD Y, OSHKOSH, WI 54901-9715",,,
461283,"230 E COUNTY RD Y, OSHKOSH, WI 54901-9715",,,
461284,"230 E COUNTY RD Y, OSHKOSH, WI 54901-9715",,,
461285,"230 E COUNTY RD Y, OSHKOSH, WI 54901-9715",,,
461286,"230 E COUNTY RD Y, OSHKOSH, WI 54901-9715",,,
461287,"8693 TOWN HALL RD, WINNECONNE, WI 54986",,,
461288,"8693 TOWN HALL RD, WINNECONNE, WI 54986",,,
461289,"3413 COUNTY ROAD K, OMRO, WI 54963-9759",,,
461290,"3413 COUNTY ROAD K, OMRO, WI 54963-9759",,,
461291,"1730 COUNTY ROAD FF, OSHKOSH, WI 54904-6815",,,
461292,"1730 COUNTY ROAD FF, OSHKOSH, WI 54904-6815",,,
461293,"6085 COUNTY ROAD T, OSHKOSH, WI 54904-9734",,,
461294,"6085 COUNTY ROAD T, OSHKOSH, WI 54904-9734",,,
461295,"6085 COUNTY ROAD T, OSHKOSH, WI 54904-9734",,,
461296,"8522 PARKWAY LN, LARSEN, WI 54947-9405",,,
461297,"8522 PARKWAY LN, LARSEN, WI 54947-9405",,,
461298,"6494 COUNTY ROAD M, WINNECONNE, WI 54986-8639",,,
461299,"6494 COUNTY ROAD M, WINNECONNE, WI 54986-8639",,,
461300,"6494 COUNTY ROAD M, WINNECONNE, WI 54986-8639",,,
461301,"6494 COUNTY ROAD M, WINNECONNE, WI 54986-8639",,,
461302,"6494 COUNTY ROAD M, WINNECONNE, WI 54986-8639",,,
461303,"8800 COUNTY RD II, FREMONT, WI 54940",,,
461304,"8800 COUNTY RD II, FREMONT, WI 54940",,,
461305,"8800 COUNTY RD II, FREMONT, WI 54940",,,
461306,"8800 COUNTY RD II, FREMONT, WI 54940",,,
461307,"2000 MUNICIPAL DR, NEENAH, WI 54956-5663",,,
461308,"2000 MUNICIPAL DR, NEENAH, WI 54956-5663",,,
461309,"2000 MUNICIPAL DR, NEENAH, WI 54956-5663",,,
461310,"2000 MUNICIPAL DR, NEENAH, WI 54956-5663",,,
461311,"1750 OLDE BUGGY DR, NEENAH, WI 54956",,,
461312,"1750 OLDE BUGGY DR, NEENAH, WI 54956",,,
461313,"1750 OLDE BUGGY DR, NEENAH, WI 54956",,,
461314,"1000 VALLEY RD, MENASHA, WI 54952",,,
461315,"1000 VALLEY RD, MENASHA, WI 54952",,,
461316,"1000 VALLEY RD, MENASHA, WI 54952",,,
461317,"1445 MIDWAY RD, MENASHA, WI 54952",,,
461318,"1445 MIDWAY RD, MENASHA, WI 54952",,,
461319,"1445 MIDWAY RD, MENASHA, WI 54952",,,
461320,"2000 MUNICIPAL DR, NEENAH, WI 54956-5663",,,
461321,"2000 MUNICIPAL DR, NEENAH, WI 54956-5663",,,
461322,"30 S 1ST ST, WINNECONNE, WI 54986-9644",,,
461323,"30 S 1ST ST, WINNECONNE, WI 54986-9644",,,
461324,"30 S 1ST ST, WINNECONNE, WI 54986-9644",,,
461325,"30 S 1ST ST, WINNECONNE, WI 54986-9644",,,
461326,"201 S OAK AVE, MARSHFIELD, WI 54449",,,
461327,"201 S OAK AVE, MARSHFIELD, WI 54449",,,
461328,"201 S OAK AVE, MARSHFIELD, WI 54449",,,
461329,"201 S OAK AVE, MARSHFIELD, WI 54449",,,
461330,"201 S OAK AVE, MARSHFIELD, WI 54449",,,
461331,"201 S OAK AVE, MARSHFIELD, WI 54449",,,
461332,"201 S OAK AVE, MARSHFIELD, WI 54449",,,
461333,"1800 S RODDIS AVE, MARSHFIELD, WI 54449",,,
461334,"1800 S RODDIS AVE, MARSHFIELD, WI 54449",,,
461335,"1800 S RODDIS AVE, MARSHFIELD, WI 54449",,,
461336,"1800 S RODDIS AVE, MARSHFIELD, WI 54449",,,
461337,"1800 S RODDIS AVE, MARSHFIELD, WI 54449",,,
461338,"1800 S RODDIS AVE, MARSHFIELD, WI 54449",,,
461339,"1800 S RODDIS AVE, MARSHFIELD, WI 54449",,,
461340,"1800 S RODDIS AVE, MARSHFIELD, WI 54449",,,
461341,"1800 S RODDIS AVE, MARSHFIELD, WI 54449",,,
461342,"211 E 2ND STREET, MARSHFIELD, WI 54449",,,
461343,"211 E 2ND STREET, MARSHFIELD, WI 54449",,,
461344,"211 E 2ND STREET, MARSHFIELD, WI 54449",,,
461345,"211 E 2ND STREET, MARSHFIELD, WI 54449",,,
461346,"211 E 2ND STREET, MARSHFIELD, WI 54449",,,
461347,"211 E 2ND STREET, MARSHFIELD, WI 54449",,,
461348,"201 S OAK AVE, MARSHFIELD, WI 54449",,,
461349,"416 CRESTVIEW LN, NEKOOSA, WI 54457",,,
461350,"416 CRESTVIEW LN, NEKOOSA, WI 54457",,,
461351,"416 CRESTVIEW LN, NEKOOSA, WI 54457",,,
461352,"416 CRESTVIEW LN, NEKOOSA, WI 54457",,,
461353,"5291 3RD AVE, PITTSVILLE, WI 54466-9379",,,
461354,"220 3RD AVE S, WISCONSIN RAPIDS, WI 54495-2742",,,
461355,"220 3RD AVE S, WISCONSIN RAPIDS, WI 54495-2742",,,
461356,"220 3RD AVE S, WISCONSIN RAPIDS, WI 54495-2742",,,
461357,"220 3RD AVE S, WISCONSIN RAPIDS, WI 54495-2742",,,
461358,"220 3RD AVE S, WISCONSIN RAPIDS, WI 54495-2742",,,
461359,"220 3RD AVE S, WISCONSIN RAPIDS, WI 54495-2742",,,
461360,"220 3RD AVE S, WISCONSIN RAPIDS, WI 54495-2742",,,
461361,"220 3RD AVE S, WISCONSIN RAPIDS, WI 54495-2742",,,
461362,"220 3RD AVE S, WISCONSIN RAPIDS, WI 54495-2742",,,
461363,"220 3RD AVE S, WISCONSIN RAPIDS, WI 54495-2742",,,
461364,"220 3RD AVE S, WISCONSIN RAPIDS, WI 54495-2742",,,
461365,"220 3RD AVE S, WISCONSIN RAPIDS, WI 54495-2742",,,
461366,"311 LINCOLN ST, WISCONSIN RAPIDS, WI 54494",,,
461367,"311 LINCOLN ST, WISCONSIN RAPIDS, WI 54494",,,
461368,"311 LINCOLN ST, WISCONSIN RAPIDS, WI 54494",,,
461369,"311 LINCOLN ST, WISCONSIN RAPIDS, WI 54494",,,
461370,"311 LINCOLN ST, WISCONSIN RAPIDS, WI 54494",,,
461371,"311 LINCOLN ST, WISCONSIN RAPIDS, WI 54494",,,
461372,"311 LINCOLN ST, WISCONSIN RAPIDS, WI 54494",,,
461373,"311 LINCOLN ST, WISCONSIN RAPIDS, WI 54494",,,
461374,"311 LINCOLN ST, WISCONSIN RAPIDS, WI 54494",,,
461375,"311 LINCOLN ST, WISCONSIN RAPIDS, WI 54494",,,
461376,"311 LINCOLN ST, WISCONSIN RAPIDS, WI 54494",,,
461377,"311 LINCOLN ST, WISCONSIN RAPIDS, WI 54494",,,
461378,"311 LINCOLN ST, WISCONSIN RAPIDS, WI 54494",,,
461379,"311 LINCOLN ST, WISCONSIN RAPIDS, WI 54494",,,
461380,"311 LINCOLN ST, WISCONSIN RAPIDS, WI 54494",,,
461381,"311 LINCOLN ST, WISCONSIN RAPIDS, WI 54494",,,
461382,"311 LINCOLN ST, WISCONSIN RAPIDS, WI 54494",,,
461383,"8090 CHURCH RD, ARPIN, WI 54410",,,
461384,"8090 CHURCH RD, ARPIN, WI 54410",,,
461385,"8090 CHURCH RD, ARPIN, WI 54410",,,
461386,"5988 1ST ST, AUBURNDALE, WI 54412-0036",,,
461387,"9301 MILL CREEK DR, MARSHFIELD, WI 54449",,,
461388,"5688 ACCOLA RD, PITTSVILLE, WI 54466",,,
461389,"2466C COUNTY ROAD D, WISCONSIN RAPIDS, WI 54495-9330",,,
461390,"3730 TOWN HALL ROAD, PITTSVILLE, WI 54466",,,
461391,"2410 48TH ST S, WISCONSIN RAPIDS, WI 54494-7796",,,
461392,"2410 48TH ST S, WISCONSIN RAPIDS, WI 54494-7796",,,
461393,"2410 48TH ST S, WISCONSIN RAPIDS, WI 54494-7796",,,
461394,"2410 48TH ST S, WISCONSIN RAPIDS, WI 54494-7796",,,
461395,"2410 48TH ST S, WISCONSIN RAPIDS, WI 54494-7796",,,
461396,"2410 48TH ST S, WISCONSIN RAPIDS, WI 54494-7796",,,
461397,"2410 48TH ST S, WISCONSIN RAPIDS, WI 54494-7796",,,
461398,"2410 48TH ST S, WISCONSIN RAPIDS, WI 54494-7796",,,
461399,"2410 48TH ST S, WISCONSIN RAPIDS, WI 54494-7796",,,
461400,"2410 48TH ST S, WISCONSIN RAPIDS, WI 54494-7796",,,
461401,"2410 48TH ST S, WISCONSIN RAPIDS, WI 54494-7796",,,
461402,"6554 CAMERON AVE, VESPER, WI 54489-9458",,,
461403,"10108 COUNTY ROAD V, PITTSVILLE, WI 54466",,,
461404,"10905 FALCON RD, MARSHFIELD, WI 54449",,,
461405,"10905 FALCON RD, MARSHFIELD, WI 54449",,,
461406,"11133 MAIN ST, HEWITT, WI 54441-9021",,,
461407,"3720 COUNTY ROAD P, MILLADORE, WI 54454",,,
461408,"2000 COUNTY ROAD G, NEKOOSA, WI 54457",,,
461409,"2000 COUNTY ROAD G, NEKOOSA, WI 54457",,,
461410,"2000 COUNTY ROAD G, NEKOOSA, WI 54457",,,
461411,"2000 COUNTY ROAD G, NEKOOSA, WI 54457",,,
461412,"1596 STATE HIGHWAY 80, BABCOCK, WI 54413",,,
461413,"8478 RICHFIELD DR, MARSHFIELD, WI 54449",,,
461414,"8478 RICHFIELD DR, MARSHFIELD, WI 54449",,,
461415,"8478 RICHFIELD DR, MARSHFIELD, WI 54449",,,
461416,"10970 COUNTY RD N, MARSHFIELD, WI 54449-9775",,,
461417,"6432 2ND AVE, RUDOLPH, WI 54475",,,
461418,"6432 2ND AVE, RUDOLPH, WI 54475",,,
461419,"1116 STATE ROAD 73 S, WISCONSIN RAPIDS, WI 54494",,,
461420,"1116 STATE ROAD 73 S, WISCONSIN RAPIDS, WI 54494",,,
461421,"1116 STATE ROAD 73 S, WISCONSIN RAPIDS, WI 54494",,,
461422,"1116 STATE ROAD 73 S, WISCONSIN RAPIDS, WI 54494",,,
461423,"1116 STATE ROAD 73 S, WISCONSIN RAPIDS, WI 54494",,,
461424,"1116 STATE ROAD 73 S, WISCONSIN RAPIDS, WI 54494",,,
461425,"1116 STATE ROAD 73 S, WISCONSIN RAPIDS, WI 54494",,,
461426,"1116 STATE ROAD 73 S, WISCONSIN RAPIDS, WI 54494",,,
461427,"1116 STATE ROAD 73 S, WISCONSIN RAPIDS, WI 54494",,,
461428,"3540 COUNTY ROAD Q, WISCONSIN RAPIDS, WI 54495-8865",,,
461429,"3540 COUNTY ROAD Q, WISCONSIN RAPIDS, WI 54495-8865",,,
461430,"3540 COUNTY ROAD Q, WISCONSIN RAPIDS, WI 54495-8865",,,
461431,"9285 2ND ST, MILLADORE, WI 54454-9731",,,
461432,"3678 TOWN HALL RD, WISCONSIN RAPIDS, WI 54495",,,
461433,"3678 TOWN HALL RD, WISCONSIN RAPIDS, WI 54495",,,
461434,"3678 TOWN HALL RD, WISCONSIN RAPIDS, WI 54495",,,
461435,"8210 MAIN ST, PITTSVILLE, WI 54466-9333",,,
461436,"6190 COUNTY RD N, ARPIN, WI 54410-9638",,,
461437,"5988 1ST ST, AUBURNDALE, WI 54412-0036",,,
461438,"451 KAHOUN RD, WISCONSIN RAPIDS, WI 54494-8252",,,
461439,"11133 MAIN ST, HEWITT, WI 54441-9021",,,
461440,"120 MAIN ST, MILLADORE, WI 54454-9642",,,
461441,"431 LETENDRE AVE, PORT EDWARDS, WI 54469-1539",,,
461442,"431 LETENDRE AVE, PORT EDWARDS, WI 54469-1539",,,
461443,"431 LETENDRE AVE, PORT EDWARDS, WI 54469-1539",,,
461444,"1580 MAIN ST, RUDOLPH, WI 54475-9728",,,
461445,"5032 BENSON AVE, VESPER, WI 54489",,,
